Name,Street,Locality,Region,Postal_Code,Phone,Fax,Email
Art House Creative LLC,2810 Crescent Avenue,Homewood,AL,35209,205-352-7742,,rhale@arthousecreativemarketing.com
Abound Real Estate,"2024 3rd Avenue N, Suite 309",Birmingham,AL,35203,205-382-1140,,neal@abound-re.com
5G Properties LLC,5260 Slasham Road,Southside,AL,35907,256-613-3618,,rikkicosper@gmail.com
Baltz Realty Group,"600 Broad Street, Suite 101",Gadsden,AL,35901,256-467-4174,,karenbaltz@gmail.com
"Baker & Associates, LLC","200 Cahaba Park Circle, Suite 210",Birmingham,AL,35242,310-849-8940,,christopheralanbaker@mac.com
"Brokermint, LLC","2175 Salk Ave, #185",Carlsbad,CA,92008,619-433-6784,,support@brokermint.com
"BEX Realty, LLC",5607 Turfwood Lane,Houston,TX,77088,800-700-9806,561-544-3809,albroker@bexrealty.com
BOOMTOWN,635 RUTLEDGE AVE,CHARLESTON,SC,29403,843-300-4615,,IDX@BOOMTOWNROI.COM
Barnes & Associates,4322 3rd Avenue South,Birmingham,AL,35222,205-328-3330,205-328-3342,abrabarnes@bellsouth.net
All Properties,1426 4th Street S W,Cullman,AL,35055,256-831-5245,,realestate39@yahoo.com
Certified Valuation Group Bham,1816 28th Ave S,Birmingham,AL,35209,205-623-3995,,CertifiedValuationGroup@gmail.com
"Alliance Realty Group, LLC","1 Chase Corporate Drive, Ste 400",Birmingham,AL,35244,205-730-6198,,adamcox92@gmail.com
Certified Valuation Group,237 Farmingdale Trace,Harpersville,AL,35078,706-302-0189,205-449-2292,certifiedvaluationgroup@gmail.com
"CoStar Realty Information, Inc.","3438 Peachtree Road NE, Suite 1500",Atanta,GA,30326,855-381-5349,,ydean@costar.com
"Corporate South Realty, Inc.",2727 Rainbow Drive,Rainbow City,AL,35906,256-543-1292,256-543-1299,joeg@corporatesouth.com
"Cotton State Realty, LLC",10 Gantts Junction Road,Sylacauga,AL,35150,256-369-2288,256-369-2299,rcomer@cottonstaterealtyllc.com
Century 21 Novus Realty,537 Newnan Road,Carrollton,GA,30117,678-664-1400,,C21novus@gmail.com
CSM Realty,4956 Valleydale Rd ste 101,Birmingham,AL,35242,205-981-9700,205-980-5098,dean_chatham@bellsouth.net
DATAPERK,2515 6th Ave South,Birmingham,AL,35233,205-879-4600,,tfuller@dataperk.com
Deaton Realty LLC,2100 Southbridge Parkway Suite 650,Homewood,AL,35209,205-502-4748,,scottdeaton1@gmail.com
"Decas Group, Inc.",490 Wildwood Circle North Ste 109,Birmingham,AL,35209,205-982-5647,,paige@decasgroup.com
"Darling Appraisal Group, LLC",113 High Hampton Drive,Pelham,AL,35124,205-253-6033,205-621-4467,aldarling@charter.net
Dac Roe Corporation,870 Hickory Nut Lane,Lawrenceville,GA,30043,470-589-9300,877-862-1463,cwkengr01@yahoo.com
"Cushman & Wakefield of GA, Inc","2100 3rd Avenue North, Ste 700",Birmingham,AL,35203,205-918-8514,205-939-4441,tim.rau@cushwake.com
"DAL Properties, LLC",135 Belcher Drive,Pelham,AL,35124,205-789-6927,888-825-9721,peter@thoroughbredhomes.net
Curtis White Companies Inc,8132 Parkway Drive,Leeds,AL,35094,205-699-2283,205-699-5347,curtiswhiteco@yahoo.com
"Curaytor, LLC",97 Salem St,Boston,MA,02113,617-921-5263,,rets@curaytor.com
Culpepper Real Estate Inc,601 7th Avenue S. W.,Cullman,AL,35055,256-739-1389,,culpepper@culpepperrealestate.com
Crochen & Associates Realty Gr,"201 Beacon Pkwy W, Ste 109",Homewood,AL,35209,205-563-1941,205-278-8701,yrushell@gmail.com
Crochen and Associates,813 Park Avenue,Fairfield,AL,35064,205-563-1941,,fred.crochen@gmail.com
Crochen and Associates,813 Park Avenue,Fairfield,AL,35064,205-563-1941,,fred.crochen@gmail.com
"Crest Valuation Realty, Inc.",421 Office Park Drive,Birmingham,AL,35223,205-223-4202,205-870-8859,jflake@crestappraisal.com
CRE Residential,3505 Bent River Rd,Birmingham,AL,35216,205-985-7171,205-985-7176,leagle@resresource.com
C Real Estate,2145 14th Avenue South,Birmingham,AL,35205,205-222-5532,205-453-0211,jcsco@yahoo.com
Crawford Realty in Alabama,"4500 Valleydale Rd, Ste 60",Birmingham,AL,35242,205-437-2004,800-878-9308,cresters@aol.com
Covenant Realty,105 Hayesbury Dr.,Pelham,AL,35124,205-369-5230,,kdd5230@gmail.com
"C P Rentals, Inc.",2400 Mountain Drive Ste 103,Birmingham,AL,35226,205-937-5207,,paulcprentals@gmail.com
"Corporate South Realty, Inc.",2727 Rainbow Drive,Rainbow City,AL,35906,256-543-1292,256-543-1299,joeg@corporatesouth.com
Cornerstone Real Estate LLC,824 Columbiana Road,Birmingham,AL,35209,205-567-6310,,laudanhenderson@hotmail.com
"Copeland Appraisals, LLC",2309 Kala Street,Helena,AL,35080,205-329-9345,205-278-4446,copeland9445@bellsouth.net
Copperleaf Properties,120 Church Street,Rainbow City,AL,35906,256-467-3025,256-467-3025,julie@copperleaf-properties.com
Coosa Properties,2870 Pinedale Drive,Southside,AL,35907,256-442-8475,256-442-8272,rtallent@coosaproperties.com
Cook Properties & Management,Cook Properties & Management,Birmingham,AL,35205,205-767-8821,,jarrod@cookpropertysales.com
Closing Deals LLC,115 Nobility Court,Roswell,GA,30355,404-961-6833,678-298-5640,julemc@yahoo.com
Clokey Realty,3224 Rainbow Dr,Rainbow City,AL,35906,256-442-1000,,clokeyinfo@clokeyrealty.com
Clear Capital R E,10266 Truckee Airport Road,Truckee,CA,96161,530-550-2500,,clearre@clearcapital.com
"Cliff Realty, LLC",705 Pleasant Grove Rd #106,Pleasant Grove,AL,35127,205-744-0500,205-744-4654,mickeyhankins0525@yahoo.com
Classic Realty Groups,2401 Stemley Bridge Rd Suite 10,Pell City,AL,35128,205-983-5622,205-678-4478,kkennessey@gmail.com
Claire Realty,305 Market Street,Centreville,AL,35042,205-926-5695,205-926-5695,alareal1@aol.com
C Jones Realty,"6908 2nd Ave. South, Ste. A",Birmingham,AL,35212,205-276-6910,,mr.leonardjones@yahoo.com
Citiwide Real Estate,3 Office Park Circle Ste 312,Birmingham,AL,35223,205-879-2552,205-879-2554,terryberns@aol.com
"Constellation Web Solutions, Inc",6737 W WASHINGTON ST STE 2120,WEST ALLIS,WI,53214,425-636-6910,,BROKERSOLUTIONS@CONSTELLATIONSWS.COM
"Christian Realty Group, LLC",9609 Parkway East Ste E,Birmingham,AL,35215,205-862-8484,,christianrealty7@gmail.com
Complete 3 Tech Soultions dba Lyons Computers,722 37th St. S.,Birmingham,AL,35222,205-251-5966,205-251-5978,cwhite@lyonscomputer.com
"COMMISSIONS, INC.",1351 DIVIDEND DR STE K,Marietta,GA,30067,855-259-7277,,MLS@COMMISSIONSINC.COM
Comans Appraisal,703 Lake Country Drive,Odenville,AL,35120,205-640-7458,205-640-7459,patcomans@windstream.net
Collett Appraisal Service,3026 Bowron Road,Helena,AL,35080,205-229-0151,,mdavidcollett@aol.com
Continental Real Estate Group,3 Elm Ave,Hackensack,NJ,07601,877-996-5728,,christine@eisenberg.bz
Coley Properties INC.,8201 Golf Cours Rd NW D3 Ste 1,Albuquerque,NM,87120,505-480-6478,505-431-7704,coleyproperties@gmail.com
Coldwell Banker Graben-Arab,2202 N. Brindlee Mtn. Pkwy.,Arab,AL,35016,256-586-2717,256-586-2167,coldwellbanker@otelco.net
Colbaugh Realty Group,2477 Valleydale Road A-2,Birmingham,AL,35244,205-908-7701,,tony@thecrg.net
Coalmont Realty,"45 Lake Davidson Lane, #1",Helena,AL,35080,205-624-4557,,lauren@rentalresourcegroup.com
CNL Specialty Real Estate,"420 S. Orange Ave., Ste. 950",Orlando,FL,32801,770-446-2910,407-540-7750,matt.messier@cnl.com
Chris Bradford Appraisals,1465 Leota Road,Southside,AL,35907,256-442-7700,256-442-7701,cbappraisal@bellsouth.net
Chime Inc.,"420 E South Temple, Ste 270",Salt Lake City,UT,84111,801-917-5860,,mls_support@chimeinc.com
Chime Inc.,"420 E South Temple, Ste 270",Salt Lake City,UT,84111,801-917-5860,,mls_support@chimeinc.com
"Charles Zanaty Appraisers, LLC",2201 Vestavia Drive,Birmingham,AL,35216,205-879-2189,205-879-2188,charliezanaty@bellsouth.net
"Cheaha Realty Services, LLC","88865 Highway 9, P. O. Box 68",Lineville,AL,36266,256-396-2717,256-396-2756,info@cheaharealty.com
"Chapman Appraisal, Inc.",9099 Camp Piers Road,Bessemer,AL,35023,205-907-2852,,hubert@chapmanappraisal.net
Charles Poe Realty,36 20th Ave NW,Birmingham,AL,35215,205-856-0401,205-854-4297,poecharles@att.net
Chanda Davis Real Estate,475 Providence Main Suite 404,Huntsville,AL,35806,256-682-1920,,chandadavis0@gmail.com
Cevado Technologies,PO BOX 266,Chelan,WA,98816,509-682-2519,,idx@cevado.com
Champion Realty,23016 U. S. Highway 31,Jemison,AL,35085,205-296-4561,205-688-3268,hudchampions@gmail.com
Cedar Crest Realty,441 Old Highway 31,Warrior,AL,35180,205-590-4100,205-590-4120,cedar1@bellsouth.net
CBRE,"1 Chase Corporate Dr., Suite 415",Hoover,AL,35244,205-582-5733,,daniel.lincoln@cbre.com
Century 21 Advantage,"2200 Valleydale Rd., Ste. 100",Birmingham,AL,35244,205-823-6677,205-823-6679,paul.holley@century21.com
Casey Bishop & Burroughs Realty,"2112 12th Avenue N, Ste. #103",Birmingham,AL,35234,205-222-1171,205-426-0422,WACASEY@BELLSOUTH.NET
Casa Realty,103 Broadway,Birmingham,AL,35209,205-870-8100,205-870-7010,johnnycreel@aol.com
Carrie Fitts Real Estate,2021 8th Street,Tuscaloosa,AL,35401,205-248-7353,,carrie@ahousethatfitts.com
"Allen & Associates Realty, Inc","925 Sharit Ave., Ste. 219B",Gardendale,AL,35071,205-631-4321,,qgina@bellsouth.net
All Four Real Estate Greater B'ham,803 So. Airport Road,Jasper,AL,35501,205-384-1287,205-384-1939,gabrasher@aol.com
Alldredge Realty LLC,780 Cobb Road,Munford,AL,36268,256-225-5715,256-831-3120,kalldredge15@gmail.com
All Access Real Estate,3100 Lorna Road Suite 305,Birmingham,AL,35216,205-979-7004,205-324-0096,cwparnel@bellsouth.net
AlaHomes Realty,112 Court Square South,Talladega,AL,35160,256-368-9008,760-462-2080,Sales@alahomes.com
Alabama Worldwide Properties,2806 Ruffner Road Suite 105,Irondale,AL,35210,205-862-3381,,regalrealtyllc@gmail.com
Century 21 Harris McKay,"123 S. Quintard Avenue, P.O. Box 2550",Anniston,AL,36202,256-236-0377,256-236-0432,keith@harrismckay.com
"Alabama Realty Experts, LLC",4710 Jug Factory Lane,Tuscaloosa,AL,35405,205-523-8300,205-614-5310,cpclarkrealtor@aol.com
Bone Realty Co. LLC,1411 Rainbow Drive Ste 2,Gadsden,AL,35901,256-546-5543,256-546-5513,john@bone-realty.com
Bob Watkins Realty,1927 Courson Court,Leeds,AL,35094,205-352-3322,,cowboy77@bellsouth.net
Blue Sky Real Estate,"2013 Kentucky Ave, Suite 205",Birmingham,AL,35216,205-823-2583,,RobinHowellSells@aol.com
"All Four Real Estate, Inc.",803 S. Airport Road,Jasper,AL,35501,205-384-1113,205-384-1939,joey@thehomeplaceinc.com
BLUEROOF,12215 S 900 E Ste A,draper,UT,84020,888-850-4867,,mclane@blueroof360.com
Blue House Realty,14203 US Hwy 411,Odenville,AL,35120,205-901-2583,,jturney@bluehousesells.com
Blue Appraisal,"3985 Parkwood Rd., Ste 109-334",Bessemer,AL,35022,205-903-1447,205-230-0090,info@blueappraisal.com
Blue Dot Real Estate LLC,1 Chase Corporate Drive #400,Birmingham,AL,35244,205-210-4407,206-866-1224,support@bluedotrealestate.com
"Blount Realty Team, Inc.",997 2nd Avenue E,Oneonta,AL,35121,205-274-7707,205-274-2720,bpuckett@otelco.net
Brik Realty - Hoover,"100 Concourse Parkway, Ste. 16",Hoover,AL,35244,205-206-4321,,brianbentley@brikrealty.com
Brik Realty,2901 2nd Ave S Ste 230,Birmingham,AL,35233,205-206-4321,205-206-4320,patlynch@brikrealty.com
Brogdon Properties,1500 Resource Drive,Birmingham,AL,35242,205-999-5939,205-991-6594,kfilyaw@brogdonproperties.com
Briko Realty Services AL LLC,"2700 Corporate Drive, Suite 200",Birmingham,AL,35242,205-236-8054,205-236-8054,david.dobbins@brikorealty.com
"Bradley Realty, LLC",1800 Highway 39,Chelsea,AL,35043,205-965-6263,205-678-7570,kbradleyrealtor@aol.com
Bridge Realty,"2900 Ensley/5 Pts W Ave, Ste B",Birmingham,AL,35208,205-788-7815,205-788-7874,rich9527@bellsouth.net
Bradford Real Estate Group,804 Main St,Montevallo,AL,35115,205-665-5556,205-665-9164,chuckrh71@gmail.com
Boston Logic,"321 Summer Street, Fl 6",Boston,MA,02118,617-266-9166,,mls@bostonlogic.com
Bluff Park Realty,760 Valley Street,Birmingham,AL,35226,205-979-5000,,hal@bluffparkrealty.com
"Bling Realty, LLC",261 U S Highway 11,Trussville,AL,35173,205-452-2595,,3waystosold@gmail.com
"B Plus Real Estate, LLC",1329 Forestdale Blvd Ste 201B,Birmingham,AL,35214,205-798-4585,205-796-9379,beajohns@bellsouth.net
Blackwell Nelson Real Estate,5502 CALDWELL MILL RD No. A,Birmingham,AL,35242,205-637-0281,888-900-6915,katrina@blackwellnelson.com
"Black Diamond Properties, LLC",1024 CO RD 12,Oneonta,AL,35121,205-625-3418,205-625-3418,JenWalkerRealEstate@gmail.com
BJC Real Estate - Cullman,327 2nd Avenue SW,Cullman,AL,35055,256-739-5478,256-739-7019,beckyg@hiwaay.net
BJC Real Estate,1400 Alabama Hwy 69 South,Hanceville,AL,35077,256-287-9140,256-287-9407,jrg@hiwaay.net
"Birmingham Home Search, LLC",4000 Eagle Point Corporate Drive,Birmingham,AL,35242,205-337-3848,,chrisrickey@homesearchbham.com
Billy Isom Realty,1707 Hillyer Robinson Pkwy S,Oxford,AL,36203,256-835-2055,256-835-2275,bisom1@billyisom.com
"Birmingham Real Estate Company, Inc.","1025 23rd Street S., Ste. 238",Birmingham,AL,35205,205-277-1503,,william@williamspells.com
Birmingham Home Leasing,4000 Eagle Point Corporate Dr Ste 240,Birmingham,AL,35242,205-259-1918,,larry.dean@birminghamhomeleasing.com
Billmeier Real Estate,"1008 Montgomery Hwy., Ste. 205",Birmingham,AL,35216,205-822-0404,,joe@joebhomes.com
Buyer's Agent Bradford Realty LLC,400 Office Park Drive,Birmingham,AL,35223,205-380-6305,205-972-8180,donmacd06@yahoo.com
Burr Real Estate,244 Goodwin Crest Drive Ste 117,Birmingham,AL,35209,205-643-6561,,BURRREALESTATE2017@GMAIL.COM
"Butler Realty, LLC",5415 Beacon Dr- Suite 125,Birmingham,AL,35210,205-966-4791,866-929-7863,gregbutler06@gmail.com
Burgess Appraisal,535 Potts Road,Newnan,GA,30263,770-304-9226,,burg587@bellsouth.net
Buck Realty LLC,10203 Holtville Road,Deatsville,AL,36022,334-569-1480,334-460-9991,GinaGBuck@gmail.com
"Brum Advertising, Inc.","2700 Corporate Dr, ste 200",Birmingham,AL,35242,205-447-9871,205-314-4701,alan@brumadverising.com
"Brum Advertising, Inc.","2700 Corporate Dr, ste 200",Birmingham,AL,35242,205-447-9871,205-314-4701,alan@brumadverising.com
Bruce Gordon Real Estate,11208 Alabama Hwy. 157,Moulton,AL,35650,256-974-8200,256-974-5815,bruce@brucegordon.com
Brown Realty,"15 Office Pk. Cir., Ste. 213",Birmingham,AL,35223,205-870-4809,205-870-4810,fletcher@brownbb.com
Brooks Hall Real Estate & Design,9 Office Park Circle,Birmingham,AL,35223,205-903-8052,,daviddutton@brookshall.com
Capps Appraisal Service,249 Riverview Drive,Ashville,AL,35953,256-390-5567,,CappsAppraisal@yahoo.com
Carlisle Realty,4058 Serenity Lane,Birmingham,AL,35214,205-901-4015,,vcarlislerealty@bellsouth.net
"Caribe Realty, Inc.",P O Box 189,Orange Beach,AL,36561,251-980-9040,251-980-9045,sales@cariberesort.com
"Capital Real Estate, LLC","3301 Lorna Road, Ste. 1",Birmingham,AL,35216,205-296-7475,205-978-4546,stevemorgan9980@gmail.com
Capital Real Estate,705 - 27th Avenue,Tuscaloosa,AL,35401,205-342-9888,205-342-9995,info@cretuscaloosa.com
Camellia Homes,24 E 5th ST,Sylacauga,AL,35150,256-245-9810,,dbozeman56@gmail.com
Buy Now Realty,817 Gadsden Highway,Birmingham,AL,35235,205-833-0004,205-838-8008,buynowrealty@bellsouth.net
"Canterbury Realty Group, LLC",4000 Eagle Point Corp. Drive,Birmingham,AL,35242,205-870-3195,205-314-5799,billwaldrip@yahoo.com
Buyers Edge Realty,600 Leighton Ave Ste C,Anniston,AL,36207,256-241-2243,256-237-2036,annie@nlp-usa.com
Bennett Appraisal Service,3476 Tamassee Lane,Birmingham,AL,35226,205-907-0726,,vince.bennett@bellsouth.net
Better Homes,3681 Cahaba Beach Rd,Birmingham,AL,35242,205-266-4424,,BetterHomes.sellsFast@gmail.com
Bell Rice and Slaughter Real Estate Consultants,"1820 3rd Ave North, # 103",Bessemer,AL,35020,205-428-4830,888-232-1149,tobuyseeme@gmail.com
Bear Realty,6242 Old Tuscaloosa Hwy,McCalla,AL,35111,205-344-2327,,ErakasTeam@aol.com
Bean Appraisal Agency,3244 Wisteria Drive,Birmingham,AL,35216,205-979-2574,205-979-2574,beanappraisal@charter.net
"Beacon Realty Group, LLC",2173 Clearbrook Road,Hoover,AL,35226,251-714-3471,,chadmaness1@gmail.com
B & B Realty Group,"315 Gadsden Highway, Suite B",Birmingham,AL,35235,205-208-9981,205-751-2234,SkanesRos@yahoo.com
Barrington Real Estate,1820 Pinson Street,Tarrant,AL,35217,205-841-5593,205-841-5684,brngre@aol.com
"Bailey Realty, LLC",2442 Indian Lake Drive,Birmingham,AL,35244,205-985-8777,205-985-8777,baileyk1c2@bellsouth.net
AW Realty,1007-B 7th Street South,Clanton,AL,35045,205-299-8200,,wrmallinson@yahoo.com
A & W Real Estate,1544 Bessemer Road,Birmingham,AL,35208,205-925-5001,205-925-5085,awspecialty@gmail.com
Avast Realty- Vestavia,700 Montgomery Highway Suite 1,Vestavia,AL,35216,205-807-9190,,beaton@avastrealty.com
4 C's Realty Company,4117 Ruff Road,Pinson,AL,35126,205-681-1412,,woodsonp@bellsouth.net
"Authentic Appraisals, LLC",421 Bridger Avenue,Rock Springs,WY,82901,307-371-1653,,normanps10@gmail.com
3F Home LLC.,9 Office Park Circle No. 215,Birmingham,AL,35223,205-739-2205,,rogersinvestments47@gmail.com
Bell Media,100 Grandview Pl Ste 120,Birmingham,AL,35243,205-985-0253,,accounting@zeekeeinteractive.com
205 Realty,9539 Parkway East,Birmingham,AL,35235,205-441-5966,,info@205realty.com
Avast Realty- Birmingham,3010 6th Ave South,Birmingham,AL,35233,205-951-8992,,katie@avastrealty.com
"3 Elements Realty Group, LLC",324 Commons Drive #25,Birmingham,AL,35209,205-709-8280,,3elementsrealtygroup@gmail.com
1st Real Estate LLC,1625 Gunter Ave,Guntersville,AL,35976,256-302-4166,,ron.hayes21@gmail.com
1st Choice Properties LLC,"2635 Valleydale Road, Ste 200",Birmingham,AL,35244,205-433-9811,205-396-3686,asitton7@gmail.com
1st Choice Properties LLC,"2635 Valleydale Road, Ste 200",Birmingham,AL,35244,205-433-9811,205-396-3686,asitton7@gmail.com
@Homes Birmingham,100 Providence Main St Ste B,Huntsville,AL,35806,256-585-6000,256-217-4073,nick@nicktpappas.com
A Prime Location Real Estate,"201 Beacon Pkwy West, Ste 202",Birmingham,AL,35209,205-942-8354,205-942-8357,Jessyca@APrimeLocation.pro
"Appraisal West, LLC",211 Oak Street,Bremen,GA,30110,770-537-6361,770-537-9472,appraisalwest@birch.net
Appraisal Services,490 Forest Hills Drive,Childersburg,AL,35044,256-378-0224,877-251-8550,sharoncraft@mindspring.com
"A P Real Estate, LLC",P O Box 715,Jacksonville,AL,36265,256-435-1771,256-435-1779,realestatebyap@aol.com
A Plus Real Estate Inc.,201 Main Avenue NW,Cullman,AL,35055,256-734-3434,888-251-8899,info@aplusrealestate.com
A Plus Appraisal,3475 County Road 82,Lineville,AL,36266,256-363-1166,,darelene@aplusalabama.com
"Apex Realty Services, LLC","201 Beacon Pkwy, Suite 102",Birmingham,AL,35209,205-568-8775,,apexrealtyservices@gmail.com
Apex Realty,160 Yeager Parkway Suite 106,Pelham,AL,35124,205-612-6845,205-664-2211,patrick@apexrealtyal.com
"Anytime Appraisals, LLC",1106 Maxanna Dr,Anniston,AL,36206,256-405-5284,,anytimeappraisalsllc@gmail.com
Advantage Real Estate,401 5th st sw,Cullman,AL,35055,256-339-3360,,jasonchandler2@yahoo.com
Advance One Real Estate,1205 17th Street S.W.,Childersburg,AL,35044,256-872-6303,256-346-3573,conniepjoiner@gmail.com
Advantage Properties,124 Court Street Ste 104,Gadsden,AL,35901,256-952-2391,888-822-7434,sydneygunter@comcast.net
Advanced Realty,"2820 Columbiana Road, #210-G",Birmingham,AL,35216,205-824-9490,205-733-6128,Dave.Allen@Advanced-Realty.co
"Adams Homes, LLC",266-A Yeager Parkway,Pelham,AL,35124,205-620-1173,205-620-6044,lbaylorrealtor@gmail.com
Adair Land Company,215 County Road 68,Clanton,AL,35045,205-824-3515,,adairland@aol.com
"Acton Realty, LLC",4898 Valleydale Rd Ste A4,Birmingham,AL,35244,205-991-5009,205-408-7914,dabc.david@gmail.com
AccountTech,574 Boston Road Ste 8,Billerica,MA,01821,978-947-3600,,adam@accounttech.com
Atrium Real Estate and Propert,"2070 Valleydale Rd Ste 5A, Ste: 5A",Hoover,AL,35244,205-978-1600,855-420-6375,amy@atriumre.com
ACCESS REALTY,1516 Centerpoint Pkwy Ste 105,BIRMINGHAM,AL,35215,205-833-6300,205-833-3350,mikefirst1@aol.com
"Atlas Valuation, LLC","2202 Gateway Dr., Ste, D",Opelika,AL,36801,334-737-6993,334-737-6996,admin@atlasvaluation.com
Atlas Property Services,"301 Beacon Pkwy W, Ste 140",Birmingham,AL,35209,205-703-9802,866-981-2047,mlaforty@ymail.com
AT Brokers LLC - Ohio,4170 Nichols Lane,Johnstown,OH,43031,800-494-1409,800-494-1409,kimberlee@atbnj.com
Atkinson & Holt LLC,"4845 Industry Lane, Suite A",Durham,NC,27713,919-283-2673,,ahb@atkinsonholt.com
"Atkinson Real Estate, LLC",535 North Broadway Ave.,Sylacauga,AL,35150,256-245-6782,256-245-1444,atkinsonrealestate@yahoo.com
Assured Realty Company,"200 GLEN EAGLES CT., SUITE A/B",Carrollton,GA,30117,770-838-9610,866-580-4689,stanleydunson@gmail.com
"Aspire Realty, Inc.","2700 Corporate Dr, Suite 200",Birmingham,AL,35242,205-378-9006,,Harold@aspirerealty.com
Ascend Web Strategy,1950 Stonegate Drive,Vestavia Hills,AL,35242,205-203-9101,,concierge@ascendwebstrategy.com
Art House Creative LLC,2810 Crescent Avenue,Homewood,AL,35209,205-352-7742,,rhale@arthousecreativemarketing.com
Andrew J Bone Real Estate Grou,1747 Reese Street,Homewood,AL,35209,205-531-5577,,andrewbone2426@yahoo.com
America's Realty Johns Creek,179 E Main St,Prattville,AL,36067,404-718-9126,,jared@americasreatly.com
Amerisell Realty,210 W Tuscaloosa St,Florence,AL,35630,256-627-7168,256-344-8080,amerisell.realty@gmail.com
American Realty Company,1132 Snow Street,Oxford,AL,36203,256-832-9933,,americanrealty@aol.com
American Real Estate,"PO BOX 116, 412 B South 3rd Street",Gadsden,AL,35902,256-543-1747,256-543-1751,amreaest@bellsouth.net
American Hometown Realty LLC,129 Head Ave,Tallapoosa,GA,30176,770-574-9040,770-574-9312,twelch41@gmail.com
Alpha And Omega Realty LLC,4705 OLD MULGA LOOP RD,Birmingham,AL,35224,205-777-2188,205-680-6511,dr.dexthen@gmail.com
"Allsouth Realty, Inc",1705 1st Street NW,Birmingham,AL,35215,205-856-5601,,kpierce@kpierce.us
All South Realty,265 A West Valley Ave,Birmingham,AL,35209,205-942-5306,205-942-5351,dannysellshouses@gmail.com
"All South Properties, INC",265 West Valley Ave. Ste. A,Birmingham,AL,35209,205-942-5306,,allsouthp@gmail.com
Alabama Realty Brokers West,312 Crawford Street,Fairfield,AL,35064,205-637-4822,205-637-4829,greg@gregwalk.com
"Alabama Realty Brokers, LLC-CP",1516 Centerpoint Parkway,Birmingham,AL,35215,205-854-7653,205-854-6911,haleemsold2@aol.com
"Alabama Realty Brokers, LLC",1275 Center Point Parkway Ste,Birmingham,AL,35215,205-854-2155,205-853-3159,roderickkathy@msn.com
Alabama Realty Brokers III,2459 Old Springville Road,Birmingham,AL,35215,205-854-8484,205-854-1101,harriseckj@aol.com
"Alabama Real Estate, Inc.",401 Canyon Park Drive,Pelham,AL,35124,205-620-1048,205-620-1053,alreales@bellsouth.net
"Alabama Land & Timber, Inc",3150 Grist Mill Road,Alpine,AL,35014,256-589-2370,,jaygib60@hotmail.com
"AgentJet, Inc.","555 Briarwood Cir, Ste 115",Ann Arbor,MI,48108,800-941-9008,,candice@agentjet.com
Alabama Classic Realty,5511 HWY 280 STE 116,Birmingham,AL,35242,205-443-3592,205-443-3591,email@stevenwhitten.com
AHI Properties,8841 Helena Road,Pelham,AL,35124,205-682-9106,205-985-9910,pbarnes@ahiproperties.com
A.G. Callins & Associates,611 19th Street,Birmingham,AL,35218,205-903-4677,205-836-0098,agcallins@hotmail.com
"Aronov Realty Brokerage, Inc. - LM",6928 Highway 49 South,Dadeville,AL,36853,256-825-4033,,virginia.pettus@aronov.com
Ark Real Estate Strategies,"4274 Cahaba Heights Court, Suite 240",Birmingham,AL,35243,205-776-8860,,tbrigham@arkrealestatestrategies.com
"Area Real Estate, Inc.",1102 W. Ft. Williams Street,Sylacauga,AL,35150,256-249-3727,256-249-9007,billpharr1@gmail.com
ARC Realty - Shelby,4274 Cahaba Heights Ct Ste 200,Birmingham,AL,35243,205-969-8910,,janetshamm@gmail.com
ARC Realty Inverness,5291 Valleydale Road,Birmingham,AL,35242,205-969-8910,205-383-1803,marielawrence13@gmail.com
ARC Realty - Hoover,"5336 Stadium Trace Parkway, St",Hoover,AL,35244,205-969-8910,,info@arcrealtyco.com
"Arcara Residential, LLC",771 Second Street,Helena,AL,35080,205-560-0474,205-560-0407,greg@arcarahomes.com
ARC Realty Gallery Brokers,2718 Cahaba Road,Mountain Brook,AL,35223,205-969-8910,,info@arcrealtyco.com
ARC Realty,4274 Cahaba Heights Ct Ste 200,Birmingham,AL,35243,205-969-8910,205-969-8890,bbevis@arcrealtyco.com
Dream Realty Company,205- 20th Street N Suite 217,Birmingham,AL,35203,205-201-4167,,dreamrk1@yahoo.com
"Dream Home Realty, Inc.",204 Griffin Park Dr,Birmingham,AL,35242,205-848-2005,205-677-0061,info@dreamhomealabama.com
Eddleman Realty LLC,"2700 Hwy 280 S, Ste 425 W",Birmingham,AL,35223,205-871-9755,205-871-7548,tanya@eddleman.com
"Ebsco Industries, Inc.","1 Mt Laurel Ave, Suite 200",Birmingham,AL,35242,205-329-1182,205-408-8906,bknapp@ebsco.com
"Ebsco Development Co., Inc.",5 Mt Laurel Avenue,Birmingham,AL,35242,205-408-8696,205-408-8991,bknapp@ebsco.com
"Expert, Inc.",20 Main Street South,Wedowee,AL,36278,256-357-0357,,dewanasmith@yahoo.com
"Expert Realty, Inc","3081 Lorna Road, Ste 102",Birmingham,AL,35216,205-823-2200,205-823-2299,EddyHarrisRE@gmail.com
"Foxfield, Inc.",1420 Northbrook Drive,Gardendale,AL,35071,205-439-4681,205-439-4682,mandywfielding@hotmail.com
Gartman Appraisals,"5330 Stadium Trace Parkway, Suite. 110",Birmingham,AL,35244,205-402-2121,205-402-2171,gartmenappraisals@gmail.com
GBH Greater Birmingham Homes,10 Office Park Cir #122,Birmingham,AL,35223,205-655-9300,205-386-4100,rsmith@greaterbhamhomes.com
Gray & Gray Realty LLC,5 21st Avenue NW,Birmingham,AL,35215,205-747-0429,205-747-0419,gray.grayrealty@charter.net
"Harris Doyle Properties, LLC",3111 Timberlake Drive,Birmingham,AL,35243,205-982-2986,205-982-2720,brooks@harrisdoyle.com
"GPS Realty, LLC",420 20th Street Ste 2200,Birmingham,AL,35127,612-237-0944,,ericdresse@gpsrealtymn.com
Hill Appraisals,1220 Brashers Chapel Road,Albertville,AL,35951,256-298-0837,866-593-2923,hughhill20@hotmail.com
Hilltop Property Solutions,3017 Ensley Ave,Birmingham,AL,35208,205-572-5870,205-433-1028,eldrd27@aol.com
"IHR Technology Services, LLC",717 Griswold St.,Detroit,MI,48226,313-373-6990,,hbm@ihrtechnologyservices.com
IHOUSEWEB.COM,8950 CAL CENTER DR,SACRAMENTO,CA,95826,866-645-7700,,henrym@ihouseweb.com
"Home Hunters, LLC",2053 Columbiana Road,Birmingham,AL,35216,205-222-8966,205-380-7490,kirkp.aei@gmail.com
Isom Appraisal,4786 Old Dalton Road NE,DALTON,GA,30165,706-232-6324,,isom.appraisalLK@gmail.com
Isom Appraisal,4786 Old Dalton Road NE,DALTON,GA,30165,706-232-6324,,isom.appraisalLK@gmail.com
Integrity Real Estate & Dev,1212 Veterans Memor Blvd Ste 1,Tuscaloosa,AL,35404,205-562-0080,866-419-7787,deandrajosh@aol.com
"Iron City Realty, LLC",6099 McAshan Dr,McCalla,AL,35111,205-365-7557,,NCallahan52@gmail.com
Inside Real Estate/Kunversion,"12936 S. Frontrunner Blvd, Suite 150",Draper,UT,84020,760-228-4286,,idxadmin@insiderealestate.com
Inman Appraisal,"8315 1st Ave N, Ste. A",Birmingham,AL,35206,205-854-1181,205-520-0232,inmanti@bham.rr.com
Ingram Moore Realty,"49 7th Street, Suite A",Pleasant Grove,AL,35127,205-862-5794,,Darylofhelena@ymail.com
INFOMEDIA,2717 3rd ave s,Birmingham,AL,35233,205-823-4440,,jason@infomedia.com
"Ingram & Associates, LLC",1900 28th Avenue South Ste 105,Birmingham,AL,35209,205-871-5360,205-871-5644,cadams@ingramnewhomes.com
Ingram & Assoc. - Condo Shoppe,1900 28th Avenue South Ste 105,Birmingham,AL,35209,205-871-5360,205-871-5644,mingram@ingramnewhomes.com
iHomefinder INC.,1900 ADDISON ST No. 300,Berkeley,CA,94704,866-700-8855,800-986-0913,IDXAPPROVAL@IHOMEFINDER.COM
IDXBROKER.COM,100 EAST BROADWAY,Eugene,OR,97401,541-343-3912,541-343-3915,BILLING@IDXBROKER.COM
I - 22 Real Estate,5301 Curry Hwy,Jasper,AL,35503,205-388-7450,,ed_frazier@bellsouth.net
Hunter Bend Realty,25 Main Street,Wedowee,AL,36278,256-357-4488,256-357-9090,crystal@hunterbend.com
HUD Home Network,616 Red Lane Road,Birmingham,AL,35215,205-833-1420,205-833-1353,info@hudhomenetwork.net
"Hope Realty, LLC",1506 7th Street N.,Clanton,AL,35045,205-755-6600,205-755-6673,suehope@bellsouth.net
Hope Realty,220 B Y Williams Sr. Drive,Midfield,AL,35228,205-777-4100,205-925-4800,hopebusiness@att.net
Howard Properties,2232 Cahaba Valley Drive,Birmingham,AL,35242,205-249-5540,205-995-1835,cd1howard@bellsouth.net
Industrial Appraisal,1312 31st Street South,Birmingham,AL,35205,205-222-1297,,david@indapps.us
Infinium Realty Group Inc.,"240 N Washington Blvd, Ste 700",Sarasota,FL,34236,000-000-0000,941-953-7707,ani@helpusell.com
Independent Realty Group,3731 5th Ave. S.,Birmingham,AL,35222,205-933-5000,205-592-8080,cd@duggan.cc
Independent Realty,"5295 Vaughn Rd, Ste 18",Montgomery,AL,36116,334-399-1623,334-613-1079,mrsjwaits@hotmail.com
"Ina Black Realty, LLC",135-B West Grand Avenue,Rainbow City,AL,35906,256-442-8802,256-442-2636,ina1@mindspring.com
Impact Realty LLC,228 South 6th Street,Gadsden,AL,35901,256-459-4001,,bdunnington14@gmail.com
Impact Realty LLC,228 South 6th Street,Gadsden,AL,35901,256-459-4001,,bdunnington14@gmail.com
"ImageSurge, Inc.",50 Terminal St,Charlestown,MA,02129,617-244-0141,,Inna@imagesurge.com
Impact Realty Advisors,429 Lorna Square,Birmingham,AL,35216,205-582-2015,205-582-2015,cody@impactrealtyadvisors.com
"Home Buyers Marketing II, Inc.",50 Parr Street,Sumiton,AL,35148,205-648-5195,205-648-1655,melissajusticebroker@gmail.com
Home Buyers Marketing II - B'ham South,4000 Eagle Point Corporate Drive,Birmingham,AL,35242,205-677-5127,,thevarnerteam@gmail.com
HomeASAP LLC,4887 Belfort Rd Ste 400,Jacksonville,FL,32256,904-800-1824,,leslie@homeasap.com
Hollis Appraisal,2042 Beltline Road Ste 100A,Decatur,AL,35601,256-350-1251,,seanhollis5823@gmail.com
Hollis Real Estate,3280 Morgan Drive,Birmingham,AL,35216,205-943-4000,205-453-4614,mark@hollisrealestate.net
Holley Development LLC,2129 1st Ave N,Birmingham,AL,35203,000-000-0000,,ph@holleydv.com
Holley Development LLC,2129 1st Ave N,Birmingham,AL,35203,000-000-0000,,ph@holleydv.com
"Hinton Real Estate, Inc.","1825 McFarland Blvd., Suite 140",Tuscaloosa,AL,35406,205-799-4636,205-366-1929,irishinton@remax.net
"HomeUnion AL, LLC",2534 Rocky Ridge Road,Birmingham,AL,35234,205-607-0099,,JonathanMednick@gmail.com
Hinge Realty,2908 Pump House Road,Mountain Brook,AL,35243,205-834-8608,205-900-3705,portermason2@gmail.com
Hometown Realty,300 East Street N Ste C,Talladega,AL,35160,256-480-0150,256-480-0190,ejstringer@gmail.com
Home Team Realty,1 Chase Corporate Ctr. Ste.400,Birmingham,AL,35244,205-313-6333,205-313-0228,BartStanley@HomeTeamRealty.com
HOMES MEDIA SOLUTIONS,325 John Knox Rd Bldg L Ste200,Tallahassee,FL,32303,800-508-6902,,idx@homes.com
"HomeStory Real Estate Services, Inc",10657 Essex Square Blvd,Fort Myers,FL,33913,512-524-9335,,brokers@homestory.com
Home Realty Company,1002 East Hamric Drive,Oxford,AL,36203,256-831-6692,256-831-6694,Homerealtyco@aol.com
Home Places Realty,169 County Road 220,Cullman,AL,35057,205-585-0012,205-631-4399,darlenecalhoun1@yahoo.com
"Home Junction, inc.","4141 Jutland Dr, #335",San Diego,CA,92117,858-777-9533,,idx@hjimail.com
Home Land Realty LLC,2430 Morgan Road Suite 200,Bessemer,AL,35022,205-434-4010,205-434-4010,linda.homelandrealty@gmail.com
Home Hunters Real Estate,7001 Crestwood Blvd No. 602,Birmingham,AL,35210,205-705-3102,205-278-9761,khammond2000@yahoo.com
High Rise Realty,4000 Eaglepoint Corp. Dr.,Birmingham,AL,35242,205-980-0313,205-769-6291,GlenDavis205@gmail.com
"Highpointe Properties, LLC",120 Bishop Circle,Pelham,AL,35124,205-444-2272,,jradams07@aol.com
H & H Realty,1976 Gadsden Highway,Trussville,AL,35173,205-508-3881,205-278-1474,1realtorpatrickgarrett@gmail.com
Highpoint Homes and Land,120 Bishop Circle,Pelham,AL,35124,205-966-7273,,bob@hprop.com
Help-U-Sell Quad Cities Realty,210 W Tuscaloosa St,Florence,AL,35630,256-768-1221,256-768-1764,tracy.jacobs22@gmail.com
Hasha Appraisal & Consulting,P.O. Box 382701,Birmingham,AL,35238,205-531-2021,,leefaircloth@bellsouth.net
Havenbrook Homes LLC,"One Perimeter Pk So, Ste 320 S",Birmingham,AL,35243,470-268-3981,,jbriley@havenbrookhomes.com
"Hart Seil Management Service, LLC",5757 DeSoto Drive,Birmingham,AL,35126,205-635-9045,,info@hartseil.com
Glenns Quality Appraisal Serv,412 Sunset Lake Circle,Chelsea,AL,35043,205-965-7488,205-678-4428,gnstef@aol.com
Glenda Fowler Real Estate Services,125 Billingsley Drive,Sylacauga,AL,35151,205-999-4285,,ginny080446@gmail.com
gkhouses.com 2,1703 Oxmoor Road,Birmingham,AL,35203,205-940-6363,,bmiles@gkhouses.com
Gold Star Realty-Oxford,1505 S Pelham Rd S Ste 6,Jacksonville,AL,36265,256-435-5000,256-435-5069,goldstarbpo@gmail.com
gkhouses.com,1701 Oxmoor Road,Birmingham,AL,35209,205-940-6363,205-940-6364,bmiles@gkhouses.com
Gill Johnson Appraisal,2108 Rocky Ridge Rd No. 204,Birmingham,AL,35216,205-979-0164,205-979-0169,gilljohnsonapp@yahoo.com
"Get a Real Estate Life, LLC","5101 Cyrus Cr., Ground Floor",Birmingham,AL,35242,205-223-1044,,Genny@GetARealEstateLife.com
Gibson Company,2539 Rocky Ridge Road,Birmingham,AL,35243,205-823-7714,205-823-7372,eg@gibsonanderson.com
"Hart Seil Management Service, LLC",5757 DeSoto Drive,Birmingham,AL,35126,205-635-9045,,info@hartseil.com
Hamner Real Estate LLC,1412 University Blvd,Tuscaloosa,AL,35401,205-345-0654,205-345-6807,jhamner@hamnerrealestate.com
Guyco Properties,200 Holly Lane,Childersburg,AL,35044,256-245-2200,256-245-6997,rguy@guycoproperties.com
Happy Homes Real Estate,221-B 2nd Avenue SE,Cullman,AL,35055,256-737-3050,888-966-0301,info@happyhomesrealestate.com
H2 Real Estate - Birmingham,"2829 2nd Ave. S., Ste. 240",Birmingham,AL,35213,205-583-5007,866-403-6522,peter@h2realestate.com
Greater Alabama MLS,8901 Rosehill Road,Lenexa,KS,66215,913-492-6900,913-492-4729,bkfs.office@email.com
"Great Western Realty, Inc.",220 Brooklane Drive,Hueytown,AL,35023,205-497-4947,205-449-0002,lbelrod@aol.com
"Great South Realty, Inc.",22580 Hwy 216,McCalla,AL,35111,205-337-9456,205-428-7360,greatsorealty@comcast.net
"Gray Realty & Auction, Inc",6877-A Gadsden Highway,Trussville,AL,35173,205-531-6247,205-677-0315,grayauctions@bellsouth.net
Gartman Appraisals,"5330 Stadium Trace Parkway, Suite. 110",Birmingham,AL,35244,205-402-2121,205-402-2171,gartmenappraisals@gmail.com
Fusion One Marketing,261 Woodbury Drive,Sterrett,AL,35147,205-206-6070,,glyna@fusiononemarketing.com
Fusion One Marketing,261 Woodbury Drive,Sterrett,AL,35147,205-206-6070,,glyna@fusiononemarketing.com
Gail Dansby Realty,1203 7th Street North,Clanton,AL,35045,205-755-7155,205-755-9781,dansbyre@realtyagent.com
Freedom Ventures Realty,3605 8th Avenue South,Birmingham,AL,35222,205-315-0054,,Dannyg.realestate@gmail.com
Freedom Realty Company,4006 Ruff Road,Pinson,AL,35126,205-401-5914,,fredajones@bellsouth.net
"Freedom Realty, LLC",1600 Hillyer Robinson Pkwy,Oxford,AL,36203,256-403-5097,,TSlick@cableone.net
Frank Poe Real Estate Co. Inc.,6283 Park South Drive,Bessemer,AL,35022,205-426-3773,205-426-7809,fpoe@frankpoerealestate.com
"Four Star Land and Realty, LLC",75 Four Star Lane,Odenville,AL,35244,205-640-3726,205-640-4724,pb12@att.net
"Foundry Commercial, LLC","420 S. Orange Ave., Ste. 950",Orlando,FL,32801,407-540-7718,407-540-7750,matt.messier@foundrycommerical.com
"Four Star Realty, LLC",100 Four Star Lane,Odenville,AL,35120,205-640-7821,205-640-7841,mize4homes@aol.com
"Foothills Realty Group, Inc.",1810 Third Avenue Ste. 106,Jasper,AL,35501,205-221-1703,205-221-6597,msingle2@bellsouth.net
Flat Fee Real Estate Birmingham,"2870 Old Rocky Ridge Rd, Ste 130",Birmingham,AL,35243,205-222-7109,,amylpewitt@gmail.com
FlatFee.com,5830 Sheridan St.,Hollywood,FL,33021,954-965-3990,954-965-3991,info@flatfee.com
"Five Star Real Estate, LLC",5115 Eastern Valley Road,McCalla,AL,35111,205-800-7524,205-800-7527,5StarRealEstateGroup@gmail.com
FirstKey Homes,877 Franklin Gateway #203,Marietta,GA,30067,770-515-8601,,mhansen@firstkeyhomes.com
"First Choice Appraisals, LLC",156 Brookstone Drive,Trussville,AL,35173,205-253-2257,,robyn@1appraisals.com
Firefly Real Estate,6930 Oporto Madrid Blvd. S,Birmingham,AL,35206,205-272-0659,,sarah.hyche@fireflysells.com
Finch Realty Company LLC,1596 CR 45,Roanoke,AL,36274,256-276-2023,,wedoweeclozer@gmail.com
Fields/Gossett Realty,P O Box 983,Pell City,AL,35125,205-884-2300,205-884-2301,c21fgre@aol.com
"Fairmont Realty Company, LLC",208 North Broadway Ave.,Sylacauga,AL,35150,256-249-8574,256-249-0169,gregtubbs@mysylacauga.com
Extreme Agent Inc,85 Bagby Drive Ste 203,Birmingham,AL,35209,205-874-9555,800-784-1049,info@extremeagent.com
Express Homes Realty of Alabam,"2188 Parkway Lake Dr Suite 200, Express Homes Realty of Alabam",Birmingham,AL,35244,205-822-1611,205-538-2402,aeguy@drhorton.com
eXp Realty Luxury South,2105 Lorna Ridge Lane Suite 149,Birmingham,AL,35216,205-983-6340,888-560-2763,sellksa@gmail.com
eXp Realty Luxury South,2105 Lorna Ridge Lane Suite 149,Birmingham,AL,35216,205-983-6340,888-560-2763,sellksa@gmail.com
ERA King Real Estate Vestavia,"2820 Columbiana Road, Ste 100",Birmingham,AL,35216,205-979-2335,,lebronl@eraking.com
ERA King Real Estate Pell City,"2319 Cogswell Ave, Ste 101",Pell City,AL,35125,205-338-7320,205-338-7323,katrinahennings@gmail.com
ERA King Real Estate Moody,2603 Moody Pkwy 300,Moody,AL,35004,205-640-0133,,ginnyw@eraking.com
ERA King Real Estate Lincoln,1160 McCaig Road,Lincoln,AL,35096,205-763-1333,205-763-1334,everett@era-king.com
ERA King Real Estate Hoover,"3075 John Hawkins Pkwy, Ste. B",Hoover,AL,35244,205-979-2335,205-979-2556,lebronl@eraking.com
ERA King - Gadsden,3327 Rainbow Drive,Rainbow City,AL,35906,256-442-1030,256-442-1039,gadsden@eraking.com
ERA King Real Estate,1530 Hillyer Robinson Ind. Pky,Anniston,AL,36207,256-831-5656,256-831-0077,anna@eraking.com
ERA - Byars Realty,1700 4th Ave,Jasper,AL,35501,205-221-3673,205-221-6540,tbyars@byarsrealty.com
"eXp Realty, LLC",1470 County Road 92,Rogersville,AL,35652,888-923-5547,,brent.beavers@exprealty.com
"Equity Resources, LLC",4509 Pine Tree Circle,Vestavia,AL,35243,205-969-1131,205-969-1303,judgehenshaw@gmail.com
ERA King - Birmingham,"2700 Rogers Drive, Ste 300",Birmingham,AL,35209,205-979-2335,205-979-2556,wlbell08@gmail.com
Expert Inc.,20 Main Street,Wedowee,AL,36278,256-357-0357,256-357-0358,josh@realpropertyexperts.net
Exit Royal Realty,619 2nd Avenue North,Clanton,AL,35045,205-258-5325,,exitroyalrealty@gmail.com
EXIT Realty Preferred,"660 McQueen Smith Rd N Suite J, Martha Doyle",Prattville,AL,36066,334-491-3948,334-491-3949,marthadoylerealtor@aol.com
EXIT Realty Partners,1345 Carmichael Way,Montgomery,AL,36106,334-356-7575,334-288-4233,bernicehendersonrealty@yahoo.com
"Estately, Inc.",2505 2nd Ave No. 415,Seattle,WA,98121,206-624-1372,,idx@estately.com
Exit Justice Realty LLC,50 Parr Street,Sumiton,AL,35148,205-648-5195,205-255-7001,melissa@exitjusticerealty.com
Exit Magic City Realty Valleydale,2057 Valleydale Road Suite 100,Pelham,AL,35124,205-532-1367,205-506-0598,dorothy.exitmagiccity@gmail.com
E21 Realty,"64 Highway 265, Suite 502",Alabaster,AL,35007,205-862-9096,,ChuckSparks@e21realty.com
"Dysart Properties, LLC",1970 Chandalar Ofc. Pk. Ste.23,Pelham,AL,35124,205-671-0101,888-517-7662,nelldysart@hotmail.com
ERA Waldrop Real Estate,312 1st Ave SE,Cullman,AL,35055,256-737-9738,256-737-9740,traci.johnson@erawaldrop.com
Duratus Property Management,3608 8th Avenue South Unit B,Birmingham,AL,35222,205-787-1592,,DannyG.realestate@gmail.com
DSEAYCOM,2810 8th Street,Tuscaloosa,AL,35401,205-248-8373,866-848-8225,dseay@dseay.com
Druid City Properties,1901 8th Ave,Tuscaloosa,AL,35401,205-409-3260,205-409-3260,info@druidcityproperties.com
D R Horton Homes,2188 Parkway Lake Dr Ste 200,Hoover,AL,35244,205-822-1611,866-897-5806,mewright@drhorton.com
Dreamtree Realty,301 Beacon Parkway West Suite 150,Birmingham,AL,35209,205-224-4721,,watleyer@gmail.com
Entrekin Brothers Homes,232 Oxmoor Circle Suite 1014,Birmingham,AL,35209,205-871-1195,,ebhrealty@gmail.com
Engel & Volkers Huntsville,"810 Palmer Road, Suite 101",Madison,AL,35758,256-325-0008,,jennyshaney@gmail.com
"Energy Smart New Homes, LLC",2509 Country Club Cir,Birmingham,AL,35223,205-222-9892,,George@energysmartnewhomes.com
EPI Real Estate,1957 Hoover Ct Suite 100A,Hoover,AL,35226,205-434-1687,,louhillepirealestate@gmail.com
"Emerald Realty of Alabama, LLC","2188 Parkway Lake Dr, Ste 200",Birmingham,AL,35244,205-824-4070,,GarySmith@EmeraldHomes.com
"Embridge Realty, LLC",215 Narrows Parkway Suite C,Birmingham,AL,35242,205-980-2877,205-980-2878,dougmsellshomes@gmail.com
"eList Realty, LLC",15932 Parkside Drive,Parker,CO,80134,720-270-2920,205-379-0475,steven.hayden@elistrealty.com
Elite Signature Properties,3915 Palisades Dr. Ste. B,Tuscaloosa,AL,35405,205-343-3534,205-633-2773,montgomery_plychette@yahoo.com
"Ellis Properties, Inc.",105 Main Street,Columbiana,AL,35051,205-669-1863,205-669-4932,cbrasher68@gmail.com
Dream Home Realty,3660 Cahaba Beach Road,Birmingham,AL,35242,205-356-3399,205-677-0061,hanna5519@bellsouth.net
"Edge Realty Group, LLC","1957 Hoover Court, Ste. 314",Birmingham,AL,35226,205-582-2818,205-582-2817,info@edgerealtygrp.com
Down South Realty Inc,30474 Highway 25,Wilsonville,AL,35186,205-669-1933,205-669-1968,info@downsouthrealty.net
"Dream Home Realtors, LLC","1109 East Park Dr., Ste 305-A",Birmingham,AL,35235,205-833-3045,205-833-3044,nathandjon@yahoo.com
Digital Trends Corporation,"300 Vestavia Parkway, Suite 2300",Vestavia Hills,AL,35216,205-979-6788,,martine@digitrends.com
"Double Oak Realty, LLC","1024 Commerce Blvd, PO Box 655",Pelham,AL,35124,205-874-9904,205-918-8005,joey@doubleoakrealty.com
"Dempsey Real Estate, LLC","550 Greensboro Ave, Ste 514",Tuscaloosa,AL,35401,205-462-3411,,stevenldempsey@comcast.net
Don Murphy Real Estate Co,P. O. Box 1015,Pelham,AL,35124,205-358-3490,,dmre@bellsouth.net
Divine Approach Real Estate and Property Management,"2421 2nd Ave N, Ste. 1",Birmingham,AL,35203,000-000-0000,,giakendall@gmail.com
Jeremy Bearden Appraisals,"1935 Hoover Court, Ste. 117",Birmingham,AL,35226,205-410-8083,,Jeremybearden1@bellsouth.net
Jerry W Norris Realty Company,323 N 4th Avenue,Bessemer,AL,35020,205-481-1551,205-481-4320,jwn@bham.rr.com
Kell Realty,17 Court Street West POB 728,Ashville,AL,35953,205-594-5391,205-594-2620,josh@kellrealty.com
"LEM Realty, LLC",1556 Ann Street,Montgomery,AL,36107,334-356-9092,,LEMRealtyLLC@gmail.com
Legacy Realty Group Inc.,2105 Lorna Ridge Lane Ste 156,Birmingham,AL,35216,205-968-1444,888-268-1617,carmeron@lrgproperty.com
Lovejoy Realty,11520 U.S. Highway 411,Odenville,AL,35120,205-629-5508,205-629-5149,brian@lovejoyrealty.com
Louis Josof Realty,"2153 14th Ave South, Suite B",Birmingham,AL,35205,205-585-6116,,ljosof@aol.com
MARKET LEADER,"110 110TH AVE NE, STE 700",BELLEVUE,WA,98004,877-450-0088,,mlspayments@marketleader.com
"Main Street Realty, LLC",6441 U.S. Highway 11,Springville,AL,35146,205-467-7325,205-467-7329,cristie@mainstreetsells.net
Keller Williams Metro South,224 1st Street N Ste 225,Alabaster,AL,35007,205-605-1000,205-605-1001,anthonyarnone@kw.com
McColgan & Company,"225 Ottley Drive, Ste. 220",Atlanta,GA,30324,404-329-9571,404-329-0944,Appraisers@McColgan.com
Neil Halvorson Realtor,1116 Forest View Lane,Birmingham,AL,35216,205-264-1774,,neilhalvorson@gmail.com
New Image Realty,"1957 Hoover Court, Ste 306",Birmingham,AL,35226,205-444-0886,205-444-2043,kahira.newimagerealty@aol.com
New Dimensions Realty,1829 1st Street NE,Birmingham,AL,35215,205-587-1936,205-853-3166,newdimensions194@bellsouth.net
"Newcastle Homes, Inc.",121 Bishop Circle,Pelham,AL,35124,205-326-7406,205-326-7407,Ashley@newcastle-homes.com
Mike McMullen and Associates,2084 Valleydale Road,Birmginham,AL,35244,205-949-2098,205-949-2050,charmullenefi@gmail.com
Northwest Realty Company,1019 Tallapoosa St.,Bremen,GA,30110,770-537-4888,,eluckey@northwestrealty.net
NorthStar Real Estate,1 Perimeter Park South Suite 100N,Birmingham,AL,35243,205-529-1787,,randytribble@msn.com
"Piedmont Appraisers, Inc.",101 1st St. SW,LaFayette,AL,36862,334-864-9955,334-864-0822,edantzfrazer@charter.net
Pierce Home Appraisals,308 Ole Mill Road,Trussville,AL,35173,205-337-7244,205-588-0805,rpierce13@charter.net
"Phoenix Realty Group, LLC","2214 3rd Ave. N., Ste. 202",Birmingham,AL,35203,205-601-9926,205-588-8908,Phoenixrealtyllc@gmail.com
Pickett Realty,104 South Main Street Suite 3,Columbiana,AL,35051,205-990-8008,,pickettrealty@yahoo.com
Phil Bernstein Appraisal,1269 Greystone Parc Drive,Birmingham,AL,35242,334-284-1933,,philbernsteinappraisal@gmail.com
Peoples Southern Bank,620 2nd Avenue North,Clanton,AL,35045,205-755-2240,,scm@peoplessouthern.com
Partners Realty,12 West Jefferson Street Suit 200,Montgomery,AL,36043,334-277-1077,,tj@partnersrealty.info
Paramount Appraisal Services,1128 Lakeridge Drive,Birmingham,AL,35244,205-586-6520,,scott.paramount@gmail.com
Keller Williams Realty Vestavia,"3595 Grandview Pkwy, Suite 250",Birmingham,AL,35243,205-397-6500,205-397-6501,aaron@jasonsecor.com
Parkway Realty,1540 Center Point Pkwy Ste 101,Birmingham,AL,35214,205-854-8490,,parkway10@hotmail.com
"Parker Realty, LLC",3425 5th Ave S,Birmingham,AL,35203,205-266-4636,,bob@bobparker.com
Pace Properties,218 20th Street North,Bessemer,AL,35020,205-434-3511,,pp68realty@bellsouth.net
"Paden Realty & Appraisals, Inc",1930 2nd Ave. N,Bessemer,AL,35020,205-424-3464,205-424-3465,toddp@padenrealty.com
Owners.com IDX,1000 Abernathy Rd Ste 245,Atlanta,GA,30328,770-612-7378,,mls@owners.com
OWNERS.COM,1661 Internat'l Pl Dr Ste 400,Memphis,TN,38120,901-818-3182,888-655-1654,joel.lawrence@rhss.com
Ojo Home LLC,5323 Millenia Lakes Boulevard Suite 300 PMB 390,Winter Garden,FL,34787,407-256-8433,,notices@ojohome.us
Omega Realty Group,110 12th Street North,Birmingham,AL,35203,205-789-1257,205-449-4637,TREY@OMEGAREALTYGROUP.NET
Ojo Home LLC,5323 Millenia Lakes Boulevard Suite 300 PMB 390,Winter Garden,FL,34787,407-256-8433,,notices@ojohome.us
"NuVision Real Estate, LLC",1801 Cherokee Ave SW Suite C,Cullman,AL,35055,256-735-4774,,dmead1289@gmail.com
Noto Real Estate and Development,3601 A Lorna Ridge Drive,Birmingham,AL,35216,205-957-9139,,samuelnoto@gmail.com
Norman & Associates LLC,"2295 Parklake Drive NE, Suite 440",Atlanta,GA,30345,470-223-1981,470-250-0333,reo@normanliving.com
No 3 Real Estate,3601 Lorna Ridge Drive,Hoover,AL,35216,205-957-8139,,ross@no3realestate.com
"Niche Realty Brands, LLC","2100 Southbridge Prkway,Ste65",Birmingham,AL,35209,866-720-7550,866-720-7550,paul.myerbirminghamal@eliteaddressrealty.com
NHD Realty,5491 Roswell Road,Atlanta,GA,30342,678-499-8460,,sohailproperty@yahoo.com
Next Step Real Estate,1806 Oxmoor Road,Birmingham,AL,35209,205-410-6751,205-803-4104,bill@nextstepre.com
NextHome Southern Realty,1100 27th St S Ste 100,Birmingham,AL,35205,205-881-1600,,jean@jeanburford.com
NextHome Limitless Realty,204 9th Street SW,Cullman,AL,35055,256-841-6767,,stacey.smith.re@gmail.com
"New Location Realty, LLC",3601 A Lorna Ridge Dr,Hoover,AL,35216,205-807-5200,205-730-1933,stevemct@gmail.com
Mike Hayes,845 Mountain Branch Drive,Birmingham,AL,35226,205-482-3558,,MHayes4498@gmail.com
Michael Parker Realty,7713 Parkside Drive,Lithia Springs,GA,30122,404-973-0272,,mwparker01@bellsouth.net
Meghan-Brooke Ashley Realty,2202 2nd Ave. No.,Birmingham,AL,35203,205-458-9878,800-640-4064,mebrasrealty@aol.com
"Meadow Tree Realty, Inc.","One Perimeter Park South, Ste. 100N",Birmingham,AL,35243,205-802-9956,,thill0183@charter.net
MEGA Agent Rental Mgmt.,"2635 Valleydale Rd., Ste.200",Birmingham,AL,35244,205-267-1520,205-991-9828,collier@MegaAgentRealEstate.com
Mega 2000 Realty,186-A Main Street,Trussville,AL,35173,205-655-2004,205-467-2404,mega2000re@aol.com
McDonald Teague & Company,"160 Yeager Pkwy, Suite 105",Pelham,AL,35124,877-377-5342,205-533-7753,jnormanmcdonlad@aol.com
MD Realty LLC,1023 22nd St S,Birmingham,AL,35205,205-317-7424,,Debi@DebiMestre.com
Neal Freeman Appraisal Co.,54 Riverbend Circle,Talladega,AL,35160,205-908-7502,,jnf323@gmail.com
"NationWide Realty, Inc.","1329 Forestdale Boulevard, Suite 201",Birmingham,AL,35214,205-942-0930,,gmaneone@aol.com
National Realty,228 18th Street North,Birmingham,AL,35203,205-249-3180,,nationalrealtyco@gmail.com
"National Land Realty, LLC",308 Montgomery Highway,Vestavia Hills,AL,35216,205-438-6733,864-331-1610,bharden@nationalland.com
National Land Realty,9 N Conception St,Mobile,AL,36602,251-281-8733,888-672-1810,cflowers@nationalland.com
"M & R Realty, LLC",400 2nd Avenue W,Oneonta,AL,35121,205-625-5397,205-625-5395,mrrealty@otelco.net
MOVOTO,129 W Ellsworth Ave,Denver,CO,80223,888-766-8686,,cbernardo@movoto.com
Movement Realty LLC,517 18TH ST N,Bessemer,AL,35020,205-276-2274,205-426-5966,WyonnaBaldwin@gmail.com
Morgan Realty,4097 Helena Road suite 102B,Helena,AL,35080,205-567-8804,,jojomorgan80@gmail.com
Morgan-Mains Appraisal Service,1346 Mountain Lane,Gardendale,AL,35071,205-814-9027,205-338-1877,orders@morgan-mains.com
"Moore Tech Solutions, Inc",2100 SOUTHBRIDGE PKWY STE 530,Birmingham,AL,35209,205-414-1902,,don@mooretechsolutions.com
Moody Realty,2841 Moody Parkway,Moody,AL,35004,205-640-7671,205-640-5420,mike@moodyrealty.net
Montevallo Realty,624 Main Street,Montevallo,AL,35115,205-665-4689,,lettahallman@att.net
"MobilityRE, LLC",6925 Union Park Cntr Ste 445,Cottonwood Heights,UT,84047,855-858-0590,801-858-0590,brandonc@mobilityre.com
Monarch Property Management,2036 Columbiana Road,Vestavia,AL,35124,205-490-6427,,kris@gomonarchrealty.com
Mogul Real Estate Group,"600 South Court Street, Ashley Spencer",Montgomery,AL,36104,334-721-4955,,mogulregroup@gmail.com
MMT,918 Florence Blvd,Florence,AL,35630,256-483-9333,,channing.mcgee@gmail.com
"M & M Realty, LLC",158 sp Pine Ave.,Hueytown,AL,35023,205-243-5156,205-491-8086,memoore1957@gmail.com
Mission Realty,104 Industrial Blvd.,Columbiana,AL,35051,205-533-7714,678-528-7466,matthew@missionrealtybhm.com
Minco Realty,409 2nd Ave SE,Cullman,AL,35055,205-552-4088,,mindyrosedunn@gmail.com
Mitchell Real Estate,960 Forestdale Blvd,Birmingham,AL,35214,205-798-2020,205-798-2057,angel.doss.realtor@hotmail.com
Mims & Company,1450 Highway 33,Pelham,AL,35124,205-837-5240,205-663-7609,montymims@msn.com
Milestone Realty,1815 Avenue D,Birmingham,AL,35218,205-703-0588,205-788-7050,maspurling@bellsouth.net
MC2 Realty,501 Riverchase Pkwy E,Birmingham,AL,35244,205-208-9911,,Ann@AnnMarch.com
Maximum One Realtor Partners,313 Jonesboro Rd.,McDonough,GA,30253,678-782-5050,678-782-5070,ming@maxonepartners.com
Maverick Properties,888 Nobles Road,Wetumpka,AL,36092,205-205-3294,205-978-4163,laura.mendez@yahoo.com
Maximum One Alabama Realtors,161-A West Main Street,Centre,AL,35960,256-523-8286,,realtornikki1@gmail.com
Matteson Appraisals,2209 Southpark Boulevard,Huntsville,AL,35803,256-650-1210,866-406-6610,terri_matteson@yahoo.com
Matthews and Associates LLC,4500 Katie's Way,Bessemer,AL,35022,205-434-4639,205-434-4928,sellitdanielle@gmail.com
Marshall Realty Group,2042 Beltline Rd. B101,Decatur,AL,35601,256-654-2402,,marshallrealtygroup1@gmail.com
"Marzette Realty, LLC",836 Lomb Avenue,Birmingham,AL,35211,205-203-4196,205-203-4195,Cynthia@MarzetteRealty.com
Marketplace Housing LLC,17197 Laurel Park Dr. N.,Livonia,MI,48152,800-331-0646,734-423-1700,michael.bone@marketplacehomes.com
"Mark Dunn Appraisals, LLC","1935 Hoover Court, Ste. 200",Hoover,AL,35226,205-365-5367,,mrkdunn@bellsouth.net
Maloy & Company Inc,2212 3rd Ave N,Birmingham,AL,35203,205-251-2185,205-254-0070,rmaloy@maloyco.com
"Main Street, REALTORS",2 N Main Street,Cedartown,GA,30125,770-500-8443,888-596-1009,mike@mainstreetrealtyga.com
"Main Street Renewal, LLC",575 W Chandler Blvd Suite 120,Chandler,AZ,85225,205-271-0165,,slindahl@msrenewal.com
Mahogany Hills Real Estate,1801 Pinson Street,Tarrant,AL,35217,205-283-7525,205-849-8892,rowens@ojayfence.com
Magnolia Real Estate,2229 Magnolia Ave,Birmingham,AL,35205,205-326-0008,205-254-3116,XJDollarMan@aol.com
Magnolia Partners LLC.,1701 Oxmoor Road,Homewood,AL,35209,205-903-5007,,finder4homes@aol.com
Magic City Properties,529 suite104 Beacon Parkway W,Homewood,AL,35209,205-785-3095,205-785-3095,ralphsan3@gmail.com
Luna Beach Properties,"1240 Commerce Drive, Suite B",Gulf Shores,AL,36542,251-948-2645,877-471-2978,chris@lunabeachgroup.com
Lynn Russell Realty,3150 Cahaba Heights Road,Birmingham,AL,35243,205-967-4566,205-933-1916,russelyn@bellsouth.net
Luxury South Realty,"2105 Lornaridge Lane, Ste.149",Birmingham,AL,35216,205-983-6340,888-560-2763,sellksa@gmail.com
"Lucretia Cauthen Realty, LLC",200 A Deatsville HWY,Millbrook,AL,36054,334-285-2310,334-285-1330,ccauthenwd@aol.com
LPS,8230 Southport Terrace,Duluth,GA,30097,678-521-7987,,Laurie1106@yahoo.com
Lucky Realty of Alabama LLC,"13521 Old Highway 280, Suite 101-F",Birmingham,AL,35242,205-365-0058,,frankie@luckyrealtyofal.com
Lucas and Associates,"100 Chase Park S., Ste. 128",Hoover,AL,35244,205-733-4888,205-733-4883,lucasgroupllc@gmail.com
Lowe and Associates Realty Inc.,101 Mildred Street,Columbiana,AL,35051,205-669-6317,205-669-0101,majlowe@bellsouth.net
List With Freedom,6615 W Boynton Beach Blvd #172,Boynton Beach,FL,33437,855-456-4945,,ralph@listwithfreedom.com
ListedItMyself.Com Real Estate Group LLC,"200 West Side Square, Suite 801 Room #21",Huntsville,AL,35801,256-763-0860,,bobby.limrealestate@gmail.com
Local Realty,"1 Chase Corporate Drive, Ste. 400",Birmingham,AL,35244,000-000-0000,,millercompanyrealestate@gmail.com
"Lisa M. Hudson, R.E. Appraiser",1013 New Hope Road,Springville,AL,35146,205-914-4687,205-467-2167,lisashellhudson@aol.com
LIST Birmingham,"300 Union Hill Dr., Ste. 200",Birmingham,AL,35209,205-582-4060,866-593-4884,melvin@listbirmingham.com
Liberty Park Properties,"1000 Urban Center Drive, Suite 235",Vestavia,AL,35242,205-945-6401,205-945-6442,spate@libertypark.com
LGI Homes NC LLC,6024 Paw Village Rd,Charlotte,NC,28214,704-999-1457,,msceau@lgihomes.com
Lewis Realty Company,4000 Eagle Point Corporate Drive,Birmingham,AL,35242,205-716-2100,205-716-2101,ron@lewisrealtyco.com
Legacy Realty Group,1844 2nd Ave NW,Cullman,AL,35055,256-841-5657,256-841-5658,kelly@legacycullman.com
"Legacy Home Realty, LLC",4000 Eagle Point Corp. Drive,Birmingham,AL,35242,205-876-8004,205-800-5808,sales@legacyhomerealty.com
Landmark Birmingham,One Perimeter Park South 100N,Birmingham,AL,35243,205-547-0040,,Celena@BhamListings.com
Leading Edge Real Estate Birmingham,"105 Owens Pkwy, Ste B",Birmingham,AL,35244,205-968-1988,205-968-1986,jnt9664@gmail.com
Land & Home Realty Inc,5134 Hwy 61,Columbiana,AL,35051,205-915-9515,205-669-7493,home5134@yahoo.com
Lake Weiss AL Com Real Est,3545 Alabama Hwy 9,Cedar Bluff,AL,35959,256-557-6555,,cathygriffeth@gmail.com
Lake Wedowee Brokers,1104 Co Road 237,Roanoke,AL,36274,256-357-2484,334-460-3377,Teresa@LakeWedoweeBrokers.com
Lakeside Real Estate & Develop,4341 Co Rd 216,Hanceville,AL,35077,256-287-1112,256-287-1128,mmorefield@smithlakesales.com
Lakes & Land Realty,200 Avondale Drive,LaGrange,GA,30241,706-416-2687,,joefranknelson@gmail.com
Lake Homes Realty of Central Alabama,"15 Southlake Lane, Suite 200",Hoover,AL,35244,205-985-2991,205-682-7656,LHRbrokerAL@lakehomes.com
Lake Homes Realty of West Alabama,"15 Southlake Lane, Suite 200",Hoover,AL,35244,205-985-2991,205-682-7656,LHRbrokerAL@lakehomes.com
Lake Homes Realty LLC,15 SOUTHLAKE LANE SUITE 200 BIRMINGHAM AL,Birmingham,AL,35244,866-525-3466,,LHRBroker@lakehomes.com
Lake Homes Realty LLC,15 SOUTHLAKE LANE SUITE 200 BIRMINGHAM AL,Birmingham,AL,35244,866-525-3466,,LHRBroker@lakehomes.com
"Lake & Coast R E Co., LLC",502 Bank Street STE A,Decatur,AL,35601,256-280-3422,256-280-3422,trent@smithlakehouse.com
"LAH Real Estate, Inc.",2850 Cahaba Road,Birmingham,AL,35223,205-870-8580,205-870-8544,maurice@lahrealestate.com
Kris Brooks Appraiser,5246 Highway 78 E.,Birmingham,AL,35210,205-482-2434,,kris_brooks@landsafe.com
Krueger Properties,"1608 13th Ave S, Ste 231",Birmingham,AL,35205,205-930-0070,205-930-0701,jkrueger3604@charter.net
LAH - Hoover Branch,"2 Chase Corporate Dr, Suite 15",Birmingham,AL,35244,205-440-4740,205-877-0121,bradallen@lahrealestate.com
LAH - Mountain Brook Branch,"2850 Cahaba Rd, Suite 200",Birmingham,AL,35223,205-870-8580,205-870-8544,sold@lahrealestate.com
Kovakas Realty,Post Office Box 253,Westover,AL,35185,205-678-2441,205-678-8941,dkovakasrealty@bellsouth.net
LAH - Homewood,1760 Oxmoor Road,Homewood,AL,35209,205-879-8580,205-879-8599,sold2@lahrealestate.com
"K. Oliver & Associates, Inc.",800 Watterson curve suite 101,Trussville,AL,35173,205-903-9332,,kaoliver5719@charter.net
Knox Realty,1124 Main Street,Gardendale,AL,35071,205-285-8888,205-285-8889,Bryan@BryanKnox.net
"KMH Appraisal Services, LLC",PO Box 346,Springville,AL,35146,205-901-3293,,Kristen@KMHAppraisalServices.com
Knowles Realty,12585 Old Highway 280 Ste 104,Chelsea,AL,35043,205-618-9898,205-319-0596,info@knowlesrealty.com
Klassey Realty,"19941 Hwy 11, Suite E",Woodstock,AL,35188,205-938-3933,205-938-3998,leatheka@aol.com
Kitchens Realty & Appraisal,6332 Hwy. 77 South,Gadsden,AL,35907,256-442-5371,,Info@kitchensrealty.org
Kingdom Builders Real Estate,1100 E Park Drive,Birmingham,AL,35235,205-769-4391,205-520-9582,dannyrhodes@earthlink.net
Kidd Appraisals,P.O. Box 131178,Birmingham,AL,35213,205-410-9152,,kiddappraisals@yahoo.com
Killough Bailey Properties LLC,126 North Calhoun Avenue,Sylacauga,AL,35150,256-487-6366,,JPBailey91@hotmail.com
Key Realty Company LLC,429 Skyland Blvd Ste B1,Tuscaloosa,AL,35405,205-632-5137,205-632-5137,jtaggert81@yahoo.com
Kel Mitchell Real Estate,407 Franklin St. Suite 201,Huntsville,AL,35801,256-429-2599,,kelvinrealtor@gmail.com
keyco realty llc,1905 16th N,St Petersburg,FL,33704,407-906-7966,678-559-0739,offers@keyco.com
"Kelly Right Real Estate of Alabama, LLC","140 S. Arthur Street, #600",Spokane,WA,99202,509-489-7000,509-340-3514,jkelly@kellyright.com
Keller Williams Realty Tuscaloosa,"1490 Northbank Parkway, Suite 180",Tuscaloosa,AL,35406,205-759-3400,205-561-6979,nancypatrie@kw.net
Keller Williams Realty Huntsville,809 Shoney Drive Suite 108,Huntsville,AL,35801,256-519-7220,256-519-7242,klrw385@kw.com
Keller Williams Realty Group Jacksonville,11 Public Sq E,Jacksonville,AL,36265,256-644-5292,256-241-1519,amyangel@kw.com
Keller Williams Realty Atlanta Partners,354 Newnan Crossing Bypass,Newnan,GA,30265,770-252-2266,770-252-1216,frontdesk615@kw.com
Keller Williams Realty Blount,997 2nd Avenue East,Oneonta,AL,35121,205-274-7707,,carolynspain@kw.com
Keller Williams Madison,1593 Hughes Road Suite A,Madison,AL,35758,256-319-3700,256-319-3701,klrw782@kw.com
Keller Williams Realty Group,1805 Hillyer Robinson Pky.St.A,Anniston,AL,36207,256-241-1500,256-241-1519,SAbernathy66@gmail.com
Keller Williams Realty Trussville,219 Main Street,Trussville,AL,35173,205-661-0662,205-661-0342,LauraListsHomes@aol.com
Keller Williams Realty Hoover,1021 Brocks Gap Parkway Suite 125,Hoover,AL,35244,205-822-2272,205-822-2992,kathygipson@kw.com
Keith Davis Realty,1583 Hwy 77,Southside,AL,35907,256-442-9995,256-442-1747,keith@keithdavisrealty.com
Keller Williams Cullman,221 Compass Way,Cullman,AL,35055,256-841-6820,,amandaphillips@kw.com
Keller Williams Metro North,"651 Main Street, Ste. 147",Gardendale,AL,35071,205-694-0300,205-694-0311,klrw854@kw.com
Keller Williams Homewood,3040 Independence Drive,Birmingham,AL,35209,205-875-6959,,bbentleybroker@gmail.com
Kate Camryn Realty LLC,1960 Co Road 33 Suite C,Pelham,AL,35124,205-587-7463,,steve@katecamryn.com
"K & B Realty, LLC",2024 12th Avenue North,Birmingham,AL,35234,205-283-1497,,alisonfulps@gmail.com
Kate Camryn Realty LLC,1960 Co Road 33 Suite C,Pelham,AL,35124,205-587-7463,,steve@katecamryn.com
"JRC Realty Group, Inc.","181 West Valley Avenue, SUITE 114",Homewood,AL,35209,205-251-3022,205-251-3036,jrcrealty@att.net
"Josey, Young & Brady Realty, LLC",75 Jackson Street Ste 200,Newnan,GA,30263,770-683-1800,770-683-1801,jybrealty@jrbrealty.com
Joseph Realty,43 Chelsea Pointe Drive,Chelsea,AL,35043,205-678-7653,205-678-6869,gailowen@msn.com
Joseph Carter Realty,20240 County Road 222,Crane Hill,AL,35053,256-747-7459,256-747-7459,joeycarter416@gmail.com
JNG Real Estate Solutions,2100 Club Drive,Gadsden,AL,35901,256-504-5634,,jodi504@yahoo.com
John L. Wilkes Appraisal Services,1131 Kingswood Road,Birmingham,AL,35242,205-602-2082,,jwilkesbham@gmail.com
Jones Realty,111 20th Street N.,Pell City,AL,35125,205-884-1500,205-884-1501,jeff@jonesappraisal.com
JNG Real Estate Solutions,2100 Club Drive,Gadsden,AL,35901,256-504-5634,,jodi504@yahoo.com
"Jim LoBretto, Realtor",4201 Smokey Road Ste 102,Calera,AL,35040,205-230-6302,,jslob@live.com
J. Huggins Realty Inc,7824 Parkway Dr.,Leeds,AL,35094,205-699-5050,205-699-3933,jhuggrlty@yahoo.com
JMA Realty,"16 Office Park Circle, Ste. 14",Birmingham,AL,35223,205-267-6567,,smurfaw@netzero.net
Jacks REALTORS - South Bibb,909 University Way,Centreville,AL,35042,205-225-0045,205-225-0550,angelafstewart@aol.com
J B Kovakas Properties,204 East College Street,Columbiana,AL,35051,205-669-8500,,kovakas@mindspring.com
Jemison Realty Company 1,2937 7th Ave. S. Ste.106,Birmingham,AL,35233,205-250-0036,205-250-0037,jemisonre@aol.com
J. E. Clark Realty Company,2214 -3rd Avenue No. Ste 205,Birmingham,AL,35203,205-581-0903,205-581-0904,darleneclark@Bham.rr.com
Jacks REALTORS,88 Big Springs Rd,Woodstock,AL,35188,205-938-9993,205-938-0442,jdeejacks@yahoo.com
"Jack Fields Realty, LLC",1123 Main Street,Gardendale,AL,35071,205-478-3104,,JackFields1@yahoo.com
Jack L. Cotton Realty,729 Greenbrier Dear Rd.,Anniston,AL,36207,256-236-7900,,jackcottonrealty@cableone.net
IXL Real Estate Birmingham,1000 Hillcrest Road Suite B,Mobile,AL,36695,251-265-1230,321-248-0433,251homesearch@gmail.com
Pro Home Team Realty,323 Taylor Road,Remlap,AL,35133,205-427-7762,205-655-7762,prohometeamrealty@gmail.com
Pritchett Realty Company,1425 Hillcrest Road,Adamsville,AL,35005,205-798-5227,,MamaJ51@aol.com
"Realty 4U, Inc.",9212 Hurst Drive,Birmingham,AL,35206,205-854-5224,205-854-6956,realty4u@bellsouth.net
Realty 2000,PO Box 368,Harpersville,AL,35078,205-672-1900,205-672-1995,realty2k@bellsouth.net
Redstone Properties LLC,8009 Bethune pkwy,Trussville,AL,35173,205-837-9200,205-655-5826,scheerk@aol.com
"Rebecca & Company, LLC",21679 Highway 216,McCalla,AL,35111,205-477-0770,205-477-0778,jrebeccataylor@gmail.com
Red Realty Brokers,516 27th Street South,Birmingham,AL,35233,205-323-5009,205-323-5004,susanmarch60@gmail.com
Red Rock Residential Group,"1425 R.Arrington Blvd S, No. 100",Birmingham,AL,35205,205-324-3383,205-271-0160,tcarruthers@redrockrg.com
Residential Alabama Birmingham,181 West Valley Avenue,Birmingham,AL,35209,205-543-8040,205-562-3434,support@residentialalabama.com
Red Mountain Real Estate,"3595 Grandview Parkway, Suite 250",Birmingham,AL,35243,205-419-7000,,george@georgewjackson.com
Russell Realty & Associates,"8919 Hwy 119, Ste 107",Alabaster,AL,35007,205-358-3377,205-610-0098,russellrealtyal@gmail.com
Residential Alabama Birmingham,181 West Valley Avenue,Birmingham,AL,35209,205-543-8040,205-562-3434,support@residentialalabama.com
Realtysouth-Cullman,"309 13th Street, NE",Cullman,AL,35055,256-775-6620,256-775-6624,kwhaley@realtysouth.com
Sil-loH Metro Realty Brokers,524 Red Lane Road,Birmingham,AL,35215,205-838-1990,205-838-1996,silloh@bellsouth.net
Sierra Interactive,"1205 E Washington St, Ste 110",Louisville,KY,40206,651-529-1222,,rets@sierrainteractive.com
Sierra Interactive,"1205 E Washington St, Ste 110",Louisville,KY,40206,651-529-1222,,rets@sierrainteractive.com
Showcase Technologies,1526 Independence,Cape Girardeau,MO,63701,888-882-1259,,tom@showcasetech.net
Signal Property Services,"2727 19th Place S, Suite 100-B",Birmingham,AL,35209,205-306-5616,,frankie@signalrents.com
Shoal Creek Realty,604 Main Street,Montevallo,AL,35115,205-567-9659,,JANICEFAYESEAMAN@GMAIL.COM
Shoal Creek Properties,103 Carnoustie,Birmingham,AL,35242,205-991-4653,205-991-7112,gthompson@shoal-creek.com
Stanley Appraisals,2645 Chandafern Circle,Pelham,AL,35124,205-960-6472,,Frank@StanleyAppraisals.com
SRE Technologies,17550 N Perimeter Dr Ste 250,Scottsdale,AZ,85255,480-630-9073,,jon.hill@sre.com
SRE Matrix (Alabama) LLC,"17550 North Perimeter Drive, Ste. 250",Scottsdale,AZ,85255,404-710-3296,505-431-7704,coleyproperties@gmail.com
SR Appraisals,560 Highway 315,Columbiana,AL,35051,205-669-5213,866-275-6199,srappraisals@earthlink.net
"Spruce Properties, LLC",2906 Commerce Square Soiuth,Irondale,AL,35210,205-368-8364,205-967-9191,joewillee@aol.com
Sperry CGA The Andrews Group,"600 Vestavia Parkway, SUITE 251",Vestavia Hills,AL,35216,205-451-8889,,keith.andrews@sperrycga.com
Spartan Realty LLC,"2015 3rd Avenue, North",Birmingham,AL,35203,205-202-4118,205-409-0531,ljackson@spartaninvest.com
"Spann Real Estate, Inc",320 Bankhead Hwy,Winfield,AL,35594,205-487-6536,205-487-6925,spannrealestate@hotmail.com
"Southpace, Inc.","300 R.Arrington Blvd N,Ste 900",Birmingham,AL,35203,205-326-2222,205-251-4753,wmcdavid@southpace.com
"Southland Appraisal Services, LLC",1111 Mooty Bridge Road,LaGrange,GA,30240,706-845-2727,,harris.satterfield@coldwellbanker.com
Southern States Realty-Central,812 Airport Road South,Jasper,AL,35501,205-221-6960,205-221-5785,jhgraham3@bellsouth.net
South Home Realty,206 Main Street,Roanoke,AL,36274,334-863-2244,334-863-2242,lindaFMail@gmail.com
Southern Living Realty,"153 Narrows Parkway, Ste. 103",Birmingham,AL,35242,205-408-6033,205-408-8740,aym2020@gmail.com
Southern Link Realty LLC,511 Creekside Court,Helena,AL,35080,205-566-7900,,office@southernlinkrealty.com
Southern Homes Realty,2550 Decatur Highway,Gardendale,AL,35071,205-631-2785,205-631-5582,kaclemons@aol.com
"Southern Belle Realty, LLC",2224 Old Markeeta Road,Moody,AL,35004,205-884-2300,205-884-2301,bonnievsellshomes@gmail.com
Southeast Property Services,"3535 Grandview Pkwy, Ste 350",Birmingham,AL,35243,205-249-2234,205-449-7276,SouthEastPropertyServices@gmail.com
"Southeastern Land Group, Inc.",16396 Hwy 280 West,Dadeville,AL,36853,256-825-4331,256-825-4332,info@selandgroup.com
Southeastern Realty & Auction,104 S Main St,Wedowee,AL,36276,256-357-4400,256-357-4402,jake@southeasternrealty.net
Southeastern Estates LLC,16396 Highway 280 West,Dadeville,AL,36853,334-467-1830,,william@southeasternestates.com
Southeast Commercial Management LLC,714 29th Street South,Birmingham,AL,35233,205-623-0055,205-378-3347,shuner@southeastcommercial.net
S.O.O.F Realty,47 Park Rd,Pleasent Grove,AL,35127,205-587-2370,,yvanrc@yahoo.com
Smarter Agent Mobile,756 Haddon Avenue,Collingswood,NJ,08108,856-481-2150,,data@smarteragent.com
Smith Lake Rentals and Sales,3176 Cahaba Heights Road,Birmingham,AL,35243,800-769-0757,,jeff@smithlakerentals.com
Sold South Realty,4501 PINE TREE CIRCLE SUITE 220,Birmingham,AL,35243,205-637-5400,,soldsouthrealty@gmail.com
Sky High Realty,241 W. Bankhead Hwy,Villa Rica,GA,30180,770-456-2667,,skyhighrealtyservices@gmail.com
Simpson Properties Group,4650 Griffith Marina Road,Orange Beach,AL,36561,251-942-5965,251-650-1331,mike@simpsonpropertiesgroup.com
SmallTown Realty,2309 Hwy 78,Heflin,AL,36264,256-463-4663,256-463-4665,cwcochran@earthlink.net
Sirman's Realty,1518 Bessemer Road,Birmingham,AL,35208,205-923-6300,205-925-7777,Robyn_lyanna@yahoo.com
Silver Real Estate,242 Inverness,Eclectic,AL,36024,850-259-6775,,bkjames11@gmail.com
Shirley James Realty LLC,149 Oak Drive,Lincoln,AL,35096,205-441-8298,,shirleyjames70@yahoo.com
Shannon Waltchack Management,120 18th Street South,Birmingham,AL,35233,205-977-9797,205-977-9793,dw@shanwalt.com
Shader Realty,2911 Cresent Avenue,Birmingham,AL,35209,205-942-1077,205-942-7235,amyshader@aol.com
RealtySouth-Chilton II,2003 7th Street North,Clanton,AL,35045,000-000-0000,,bamalandlady@gmail.com
RealtySouth-Chilton II,2003 7th Street North,Clanton,AL,35045,000-000-0000,,bamalandlady@gmail.com
RealtySouth-Bldr & Developer,"3170 Hwy 31 South, Ste 312",Pelham,AL,35124,205-663-3895,205-663-5603,sunderwood3631@gmail.com
RealtySouth-Chilton Office,1500 7th St N,Clanton,AL,35045,205-755-7719,205-755-7858,pbingham@realtysouth.com
RealtySouth-Auburn Lake Martin,"2408 E UNIVERSITY DRIVE, SUITE 111",AUBURN,AL,36830,334-466-2980,,smccollum@realtysouth.com
RealtySouth-Admin Office,"2501 20th Pl So., Ste 400",Birmingham,AL,35223,205-322-7500,205-325-1394,Jimdye@realtysouth.com
"Realty Source, LLC",PO Box 52,Columbiana,AL,35051,205-669-3200,205-669-7800,kmrm222@aol.com
RealtySource,426 Martin Street South,Pell City,AL,35128,205-222-2829,,realtysource@icloud.com
"Realty Solutions Group, LLC",120 Bishop Circle,Pelham,AL,35124,205-705-5706,,lcrase06@yahoo.com
Rudy James Realty,"500 Southland Dr, Suite 212",Birmingham,AL,35226,205-823-7130,205-823-7486,officessouth@yahoo.com
ROPA IDX,NULL,Null,NY,12345,205-111-1111,,john.edward@mac.com
Rudulph Real Estate,P.O. Box 661286,Vestavia,AL,35266,205-879-4691,205-871-1988,rudy@rudulphrents.com
"RSC Properties, LLC",11 Office Park Circle,Birmingham,AL,35223,205-552-6127,205-967-6383,rcrayne@rscproperties.com
"Ron Prince Realty, LLC",1741 Jefferson Avenue SW,Birmingham,AL,35211,205-222-8774,,ronprince00@gmail.com
Ronald S. Foster Co. Inc.,4562 Lawrenceville Hwy NW,Liburn,GA,30047,770-279-1402,770-279-1495,fosterco@bellsouth.net
Roma Realty Inc.,P O Box 100,Remlap,AL,35133,205-680-3111,205-680-5893,romacater@yahoo.com
"Roger M Pugh, Appraiser","5707 Belmont Pl, Irondale, Al",Irondale,AL,35210,205-410-5269,,rmpugh@bellsouth.net
Scotch Real Estate Company,110 Scotch Drive Suite 101,Birmingham,AL,35242,205-991-5075,205-995-8441,joe@scotchcompanies.com
Selective Realty LLC,211 B Yeager Pkwy,Pelham,AL,35124,205-266-3000,205-970-1655,ccgivianpour@gmail.com
Rocket Homes Real Estate LLC,701 Griswold Street,Detroit,MI,48226,800-980-5022,,brokerinfo@inhouserealty.com
SeBro Realty,2861 Brooklane Drive,Hueytown,AL,35023,205-436-8301,205-436-8302,pamsegarsmorris@gmail.com
Semaan Realty,3146 Green Valley Road,Birmingham,AL,35243,205-970-8595,205-970-8596,jrsemaan@charter.net
Scotch Homes Inc.,506 Williow Branch Circle,Chelsea,AL,35043,205-980-3477,205-278-5877,scothchomes@yahoo.com
SB Dev Corp,3545 Market Street,Birmingham,AL,35226,205-989-5588,205-989-8884,srohrer@e-signaturehomes.com
Sanders Trust LLC,"1000 Urban Center, Ste. 675",Birmingham,AL,35242,205-298-0809,205-298-0810,dbaylot@sanderstrust.com
"Sayco Capital Group, Inc.","1048 Irvine Avenue, No. 609",Newport Beach,CA,92660,949-933-7763,949-480-1661,cinman@saycocapital.com
"Sand Castle Realty, Inc.",20078 Brinks Willis Road,Foley,AL,36535,251-968-4137,,theboss@sanderson-realty.com
R Ware Realty LLC,316 42nd Ave NE,Birmingham,AL,35216,205-701-1880,,realtor_rware@charter.net
RE/MAX Central Prop-Branch 1,906 7th Street South,Clanton,AL,35045,205-280-7500,205-280-7544,droberson@remax.net
RE/MAX Advantage North,"1326 Main Street, Ste. 104",Gardendale,AL,35071,205-608-8126,205-608-8076,realtykeith@gmail.com
RE/MAX Advantage South,"2635 Valleydale Rd, Ste 200",Birmingham,AL,35244,205-991-1500,205-991-9828,asharpe@remax.net
"Reliance Realty, LLC",950 Hwy 431,Roanoke,AL,36274,334-863-2161,334-863-2162,RelianceAppraisal@yahoo.com
"Reliance Realty, LLC",108 W. Point St.,Roanoke,AL,36274,334-863-2161,334-863-2162,elyssajohnson0919@gmail.com
"Reliance Realty Groups, LLC","2700 Corporate Drive, Suite 200",Birmingham,AL,35242,205-968-1235,205-968-1237,reliancerealtygroups@gmail.com
RE/MAX Advantage,2964 Columbiana Rd,Birmingham,AL,35216,205-979-9854,205-979-2558,robertbartonscott@gmail.com
RELIANCE NETWORK,"17040 PILKINGTON RD, STE 310",LAKE OSWEGO,OR,97035,877-231-3209,,AMY@RELIANCENETWORK.COM
Relfe-Welden Real Estate,2102 Cahaba Road Suite D,Mountain Brook,AL,35223,205-879-8787,205-879-1199,annrelfe@yahoo.com
Regional Services of Alabama,903 Montgomery Highway,Birmingham,AL,35216,205-979-8500,205-979-8414,davidemory@remax.net
Robinson Real Estate,2101 4th Avenue South Ste 200,Birmingham,AL,35233,205-986-3777,205-981-1545,rre-al@robinsonrealestate.com
"Robert G. Andrews, SRA",300 Office Park Drive,Birmingham,AL,35223,205-527-8979,205-278-8784,AppraiserBob@aol.com
RMI Realty Group,3125 Green Valley Road,Birmingham,AL,35243,205-968-3803,,Scott@rmirealtygroup.com
Revival Real Estate,"2637 Valleydale Road, Ste 200",Hoover,AL,35244,205-601-7900,,jody@jodygann.com
"River Region Realty Group, LLC","445 Dexter Ave., Suite 4050, Trey Sippial",Montgomery,AL,36104,334-557-7060,334-557-7061,info@riverregionrealtygroup.com
R.E.U.,1919 Oxmoor Road #267,Homewood,AL,35209,205-470-6725,,ddionne2020@aol.com
ResiRealty,"3630 Peachtree Road NE, Suite 1500",Atlanta,GA,30326,407-467-4045,,jgoodman@resicap.com
Residential Alabama Tri-County,4201 Nordale Dr.,Montgomery,AL,36116,334-424-3100,,towannahsmith@gmail.com
Residential Alabama LLC,9424 Baymeadows Road Suite 110,Jacksonville,FL,32256,205-543-8040,334-239-4437,sales@residentialalabama.com
RE/MAX Preferred,"2 Office Park Cir., Ste. 5",Birmingham,AL,35223,205-879-7665,205-879-1551,hamorrow@gmail.com
RE/MAX Metro South,1 Independence Plaza Ste. 422,Birmingham,AL,35209,205-508-2800,,FrankPhillips@remax.net
RE/MAX Northern Properties,1720 Decatur Hwy,Gardendale,AL,35071,205-631-9892,205-418-1010,linda.willis@remax.net
RE/MAX Marketplace,7145 Happy Hollow Rd. Ste. 100,Trussville,AL,35173,205-661-0811,205-661-0814,office@trussvillemarketplace.com
Re/Max In House IDX,5075 S. Syracuse St,Denver,CO,80237,303-796-3610,,mls@seventy3.com
RE/MAX Lakefront,20755 Highway 431,Wedowee,AL,36278,256-357-4444,256-357-2277,lakefrontwedowee@gmail.com
R. Jay Collins & Co.,"One Perimeter Park South, Ste. 100 N",Birmingham,AL,35243,803-517-8083,,rjcappraisal140@gmail.com
RE/MAX Hometown Properties,30 Comer Ave,Pell City,AL,35125,205-338-7355,,mike@hometownproperties.com
RE/MAX Elite,"1811 Hwy 78 E, Ste 104",Jasper,AL,35501,205-221-8822,205-221-7766,dabbott.goins@hotmail.com
RE/MAX First Choice,201 Amphitheater Rd,Pelham,AL,35124,205-663-4402,205-620-0196,remax@firstchoiceal.com
Renters Warehouse LLC,2151 Highland Avenue Suite 110,Birmingham,AL,35205,205-730-3242,,anorman@renterswarehouse.com
RE/MAX Wired,211 South Quintard Avenue,Anniston,AL,36201,256-405-1055,256-459-7041,tan@tanakles.com
RE/MAX Unlimited,37 Hughes Rd Ste A,Madison,AL,35758,256-327-7600,256-461-4053,remaxunlimitedmadison@gmail.com
RE/MAX TOWN AND COUNTRY,118 CHURCH ST. SUITE 1,RAINBOW CITY,AL,35906,256-459-5959,256-459-5979,mitchellcoleman55@gmail.com
RE/MAX Results,833 New Franklin Road,LaGrange,GA,30240,706-845-7000,706-845-7225,rmrs3.1510@hotmail.com
RE/MAX Southern Homes-280,110 Inverness Corners,Birmingham,AL,35242,205-313-8500,205-313-8501,southernhomesrealestate@yahoo.com
RE/MAX Realty Brokers,5588 Apple Park Dr,Birmingham,AL,35235,205-856-5050,205-856-8788,kentjones@remax.net
"Red Hills Realty, LLC",300 Union Hill Dr. Ste. 200,Birmingham,AL,35209,205-871-2556,205-868-9109,amym@redhillsrealtyllc.com
Redfin Corporation,324 Commons Drive,Birmingham,AL,35209,205-208-9967,205-533-9928,ben.price@redfin.com
Redemption Realty,4500 Valleydale Rd. Ste. 200F,Birmingham,AL,35242,205-862-6904,205-408-9611,pdgarris@juno.com
RE/MAX Southern Homes,903 Montgomery Hwy,Birmingham,AL,35216,205-979-8500,205-979-8414,southernhomesrealestate@yahoo.com
Red Bell Real Estate,"7730 S. Uniion Park Ave, Ste 400",Sandy,UT,84047,801-483-4394,801-464-4084,mls@rewdbellre.com
"R.E.Browne & Associates, LLC","1935 Hoover Court, Ste. 117",Birmingham,AL,35226,205-337-0250,,rayappraisals@bellsouth.net
"ReBirth Marketing and Consulting, LLC",1509 Acorn Circle,Mt. Olive,AL,35117,205-915-2926,205-631-3225,rreese@rebirth.marketing
Rearview Advertising,"2105 Barrett Park Dr, No. 108",Kennesaw,GA,30144,678-574-7261,,alex@rvadv.com
Realty Tools,2 Beechmere Lane,Hunt Valley,MD,21030,000-000-0000,,billing@realtytools.com
RealtySouth-Tuscaloosa,500 Town Center Blvd.,Tuscaloosa,AL,35406,205-758-3300,205-758-9100,cindydenney@realtysouth.com
RealtySouth-Trussville Office,428 Main Street,Trussville,AL,35173,205-655-8877,205-655-8880,bjamick@bellsouth.net
RealtySouth-Shelby Office,240 Applegate Parkway,Pelham,AL,35124,205-663-3895,205-663-5603,reida@reidaunderwood.com
Realtysouth-Northwest 2,505 19th Street W,Jasper,AL,35501,205-221-9931,,kbozeman@realtysouth.com
RealtySouth-Over the Mtn,1220 Alford Avenue,Birmingham,AL,35226,205-822-2364,205-822-2610,dflemming@realtysouth.com
RealtySouth-Oneonta/Blount Co,100 Second Ave West,Oneonta,AL,35121,205-274-4444,205-274-4400,vjbrown@realtysouth.com
RealtySouth-Northeast Alabama,"100 2nd Avenue, W.",Oneonta,AL,35121,205-274-4444,205-274-4400,smarbut@realtysouth.com
RealtySouth-Northern Office,951 Main Street,Gardendale,AL,35071,205-631-5499,205-631-0139,jchamness@realtysouth.com
RealtySouth-OTM-Acton Rd,"2409 Acton Road, Suite 137",Birmingham,AL,35243,205-978-9000,205-979-0020,tstanphill@realtysouth.com
RealtySouth-Huntsville-BHM,2501 25th Pl. South Ste 400,Birmingham,AL,35233,205-255-3555,,shauna@valorcommunities.com
Realtysouth-Cullman,"309 13th Street, NE",Cullman,AL,35055,256-775-6620,256-775-6624,kwhaley@realtysouth.com
RealtySouth-Homewood,1690 Reese St,Homewood,AL,35209,205-407-4774,,macton@realtysouth.com
RealtySouth-MB-Cahaba Rd,2807 Cahaba Road,Birmingham,AL,35223,205-870-5420,205-877-9280,jcamp@realtysouth.com
RealtySouth-Inverness Office,109 Inverness Plaza,Birmingham,AL,35242,205-991-6565,205-991-6923,patabt@gmail.com
RealtySouth-I459 Southwest,4760 Eastern Valley Rd Ste 126,McCalla,AL,35111,205-477-7769,,lshelton@realtysouth.com
RealtySouth-Downtown Birmingham,2229 1st Avenue North,Birmingham,AL,35203,205-325-1311,,Jimdye@realtysouth.com
RealtySouth-MB-Crestline,105 Euclid Avenue,Birmingham,AL,35213,205-879-6330,205-879-8608,ceaton@realtysouth.com
Realty Solutions,"2588 El Camino Real, Ste F334",Carlsbad,CA,92008,800-516-8569,,bill@drslisting.com
Realty Resources of Alabama,741 Volare Drive,Pelham,AL,35244,205-281-3562,866-878-2027,sam.realtyresources@gmail.com
"Realty, Inc.",2649 County Road 1492,Cullman,AL,35058,256-709-9979,,CindySellsAlabama@gmail.com
"Realty Pros, LLC",100 Carrington Lane,Calera,AL,35040,205-665-2828,205-665-9580,mike@realtyprosllc.net
REALTYNET,4000 Eagle Point Corp Dr #425,Birmingham,AL,35242,205-529-8614,800-595-0856,sold@bryanwelch.com
"Realty One, LLC",7070 A Aronov Dr Ste 8105-C1,Fairfield,AL,35064,205-785-2123,205-785-2124,realtyonellc@att.net
Realty Executives-Tuscaloosa,2201 Jack Warner Parkway,Tuscaloosa,AL,35401,205-758-1040,205-758-9936,info@weselltuscaloosa.com
Realty Consultants,1671 Center Point Pkwy Ste 121,Birmingham,AL,35215,205-856-0056,205-856-5444,realtyconsultants1@att.net
Realty Consultants,429 Skyland Blvd Ste B5,Tuscaloosa,AL,35405,205-393-1554,205-342-0049,cindysales@comcast.net
Realty by Design,616 Red Lane Rd Ste B1,Birmingham,AL,35215,205-746-5517,888-862-0705,reidcarol@yahoo.com
Real Property Management Partn,2127 Pelham Parkway Ste 203,Pelham,AL,35124,205-208-9550,205-208-9530,info@realpmpartners.com
REALGEEKS,REALGEEKS,KAILUA,HI,96734,808-261-0616,866-854-3912,LIDA@REALGEEKS.COM
Real Living Georgia Life Realty,211 Main Street,Villa Rica,GA,30180,770-456-2600,770-456-2060,debbie@georgialiferealty.com
REAL ESTATE DIGITAL,PO Box 745007,Atlanta,GA,30374,800-243-2139,,sharon.luna@realestatedigital.com
Real Estate Practitioners 1,"9430 Parkway East, Ste. 5",Birmingham,AL,35215,205-833-3006,205-701-9430,keithturner04@gmail.com
Real Estate Partners Chatt LLC,525 W Main Street,Chattanooga,TN,37402,423-265-0088,423-265-0089,dbrown@houserep.com
Real Estate Assoc-Branch 1,2003 7th Street North,Clanton,AL,35045,205-755-5450,205-755-5459,info@propertyofalabama.com
Real Estate Associates,2003 7th Street North,Clanton,AL,35045,205-755-5450,205-755-5459,info@propertyofalabama.com
Pritchett-Moore Real Estate,1120 Queen City Avenue,Tuscaloosa,AL,35401,205-349-6500,205-349-6567,relocation@pritchett-moore.com
Priority Real Estate & Invest.,"33 Barber Ct, Ste 111",Birmingham,AL,35209,205-941-0900,205-876-8111,raquittak@yahoo.com
Priority Appraisals,186 Hidden Creek Drive,Trinity,AL,35673,000-000-0000,,priorityappraisals@hotmail.com
Priority Appraisals,186 Hidden Creek Drive,Trinity,AL,35673,000-000-0000,,priorityappraisals@hotmail.com
Prime Investment Brokers,"1025 Montgomery Hwy, Ste 103",Birmingham,AL,35216,205-978-2780,205-978-2782,mvkprime@gmail.com
Prestige Realty,806 7th Street South,Clanton,AL,35045,205-280-7500,205-280-7544,denaer1@gmail.com
Prestige Properties Realty LLC,1377 Perdido Key Dr Ste B-120,Pensacola,FL,32507,256-473-5670,,susanlongbeach@cox.net
Premier Real Estate Management,2603 Decatur Hwy Ste 102 A,Gardendale,AL,35071,205-306-4674,205-449-2880,cheryl.prewitt@premierrealestateal.com
"Real Equity, Inc.","2320 Highland Ave S, Suite 150",Birmingham,AL,35205,205-607-0099,,jonathan@realequityrealty.com
Realastate,"794 Indian Hill Drive, None",Woodstock,AL,35188,205-966-5229,205-449-8335,kdeerman16@gmail.com
"Rausch Coleman Realty Group, LLC",4274 Cahaba Heights Court Suite 200,Birmingham,AL,35243,205-895-8529,,kim@harrcorealestate.com
"Ragan Land Company, Inc.",6 OFFICE PARK CIR STE 100,Birmingham,AL,35223,404-731-5559,,DARRELL@RAGANLANDCOMPANY.COM
Ray & Poynor Properties,2629 Cahaba Rd,Birmingham,AL,35223,205-879-3036,205-879-0577,wpoynor@raypoynor.com
"P W H Appraisals, LLC",825 Lual Drive,Tarrant,AL,35217,205-410-4436,866-592-0354,pwhappraisals@charter.net
Queen Bee Realty,612 17th Street North,Bessemer,AL,35020,205-565-7633,205-565-7633,queenbeerealtor4u@gmail.com
"Property One Real Estate, Inc.",300 6th Avenue SW,Birmingham,AL,35211,205-327-2300,205-326-0410,vchardy@victorhardy.com
Premier Living Realty,2736 Tyler Road,Birmingham,AL,35226,205-365-5855,205-978-8892,kdinga@premierliving.com
Property Kayak,3040 Independence Drive,Birmingham,AL,35209,303-746-7347,,kelly@propertykayak.com
Premier Living Realty,2736 Tyler Road,Birmingham,AL,35226,205-365-5855,205-978-8892,kdinga@premierliving.com
Powell Properties,"600 Vestavia Pkwy, Suite 140",Birmingham,AL,35216,205-823-0335,,Chuck@PowellPropertiesLLC.com
Potts Marketing,PO Box 5,Anniston,AL,36202,256-237-7788,,taylor@pottsmarketing.com
"Portside Realty, LLC",4547 Cypress Village Blvd,Orange Beach,AL,36561,251-233-3100,,ross@portsiderealty.com
Porter and Porter,209 North Street West,Talladega,AL,35160,256-362-4194,256-362-0040,joesporter2000@bellsouth.net
Popwell Appraisal Service,503 1st Ave N,Clanton,AL,35045,205-755-7825,205-755-8336,Larry@PopwellAppraisal.com
Pope Realty Inc.,202 N. Main St.,Piedmont,AL,36272,256-447-1111,256-447-9400,bobby@poperealty.net
Platinum Realty,300 Industrial Drive,Birmingham,AL,35211,205-253-3577,,annettecarra@me.com
PLACESTER,101 ARCH ST STE 310,BOSTON,MA,02110,617-858-6517,,DATAOPS@PLACESTER.COM
"Surplus Realty, LLC",2714 20th St. S. No. A,Birmingham,AL,35209,205-541-5861,,joe@surplusrealty.com
"Sun Real Estate, Inc.-- BHM",233 D Deatsville Hwy,Millbrook,AL,36054,334-285-0800,334-285-9385,sunestate@bellsouth.net
Superior Realty Group,"2231 Victory Lane, Ste 410",Vestavia Hills,AL,35216,205-902-1699,205-756-4500,debsimsrealtor@gmail.com
Sylvan Realty LLC,"3495 Piedmont Rd NE, Bldg 11 Suite 300",Atlanta,GA,30305,404-522-1952,,jcolquitt@sylvanre.com
"The McJenkin Company, Inc.",9726 Old Greensboro Road,Tuscaloosa,AL,35405,205-343-1600,205-343-0788,tommcjenkin@charter.net
The Luxe Group,1 Chase Corporate Center Ste 400,Birmingham,AL,35244,205-518-5527,888-316-5785,Jamia@JamiaNelson.com
Total Expert,"6321 Bury Drive, Ste. 15",Eden Prairie,MN,55436,952-977-8618,,jake@totalexpertinc.com
Ward Appraisals,2912 Black Horse Bend,Birmingham,AL,35242,205-981-0133,,billwardappraisals@charter.net
"Wedowee Lake & Lands Realty, I",23 Main St.,Wedowee,AL,36278,256-357-9600,256-357-2323,ron@lakewedowee.org
Walton Brown Real Estate,"701 37th Street South, Suite 7",Birmingham,AL,35222,205-871-7000,205-383-1579,ewaltonbrown@yahoo.com
Zillow Group,2600 Michelson Dr 12th Floor,Irvine,CA,92612,877-419-0670,,idx@zillowgroup.com
Wedgworth Realty,4154 Crosshaven Dr,Birmingham,AL,35243,205-967-1831,205-967-1833,mike@wedgworth.net
"Wedowee Lake & Lands Realty, I",23 Main St.,Wedowee,AL,36278,256-357-9600,256-357-2323,ron@lakewedowee.org
"Zinvestor Properties, LLC",7521 Gadsden Highway,Trussville,AL,35173,205-835-7488,205-508-3711,GCZinder@gmail.com
"Zhou Consulting, LLC",849 Kodak Road,Kodak,TN,37764,865-888-6849,865-888-6284,myagentsimon@yahoo.com
ZapLabs,2000 Powell Street Ste 300,Emeryville,CA,94608,510-735-2753,,data@zaplabs.com
ylopo,4712 Admiralty Wy ste 548,Marina Del Rey,CA,90292,844-359-5493,,support@ylopo.com
Yellowhammer Properties,"6 Office Park Circle STE 218, Sara Thompson",Birmingham,AL,35223,205-527-1054,,sara@yhproperties.com
"W & J Realty, LLC","420 20th St. N., Ste 2200",Birmingham,AL,35203,205-854-1100,205-854-1102,millionairwright@aol.com
Wolfnet Technologies,"211 N 1st Street, Ste 455",Minneapolis,MN,55401,612-342-0088,612-342-0087,MLSNOTIFY@WOLFNET.COM
Xome INC,2901 2nd Ave S,Birmingham,AL,35233,205-296-4615,205-823-7880,brian@reo-group.net
World Properties,"2820 Columbiana Rd, Ste 210",Birmingham,AL,35216,205-879-9287,205-870-9753,WorldProperties@ALRealEstate.com
"William S. Wittmeier, Jr., LLC",1811 Windsor Boulevard,Homewood,AL,35209,706-346-1006,,wwittmeier@gmail.com
Williamson Realty Group,2626 7th Street,Tuscaloosa,AL,35401,205-454-9617,,joshwilliamson.wrg@gmail.com
White Real Estate Inc.,261 State Highway 160,Warrior,AL,35180,205-647-0007,205-413-8900,darren@whiterealestate.com
"Westervelt Realty, Inc.",1400 Jack Warner Pkwy.,Tuscaloosa,AL,35404,205-562-5531,205-562-5013,tchambers@westervelt.com
White House Real Estate,"One Perimeter Park South, Suite 100 N",Birmingham,AL,35243,205-213-5388,,connie@luxebhm.com
"Weichert, Realtors- The Space Place Cullman",403 4th Avenue SW,Cullman,AL,35055,256-731-9611,256-737-9608,dmead1289@gmail.com
Weichert Realtors - Carter & Co,403 4th Ave SW,Cullman,AL,35055,256-737-9611,256-737-9608,info@cartercompany.net
Weichert Realtors-Romano Properties,2711 C Pelham Parkway,Pelham,AL,35124,205-358-7953,205-358-7972,romano.marie@gmail.com
"Weichert, Realtors- The Space Place Cullman",403 4th Avenue SW,Cullman,AL,35055,256-731-9611,256-737-9608,dmead1289@gmail.com
Weichert of Alabama,2304 S. Memorial Pkwy,Huntsville,AL,35801,256-533-7210,256-533-6758,lshoaf@weichertrealtors.net
WEICHERT LEAD,1625 ROUTE 10 EAST,EAST MORRIS PLAINS,NJ,07950,973-656-3307,,WDC_FEEDS@WLNINC.COM
W. David Price,1262 Perry Hill Road,Montgomery,AL,36109,334-313-0366,,4doprice@yahoo.com
Weaver Land & Realty,650 Academy Drive,Bessemer,AL,35022,205-428-4139,205-426-0510,dale@wlandco.com
Webb & Company Realty,7834 Parkway Drive,Leeds,AL,35094,205-699-7001,205-699-9727,webbco@WebbAndCompanyRealty.com
Watts Realty Co Inc,P. O. Box 11425,Birmingham,AL,35202,205-251-1267,205-252-7777,cfox@wattsrealty.com
Warrior Real Estate Inc.,4440 Hargrove Rd East,Tuscaloosa,AL,35405,205-886-6000,,allenbanksre@gmail.com
Watermark Properties- Commeric,1634 Montgomery Highway,Hoover,AL,35216,205-365-7400,205-823-3933,stevestamp@sustainablegrowthproperties.com
Warrior Real Estate Inc.,4440 Hargrove Rd East,Tuscaloosa,AL,35405,205-886-6000,,allenbanksre@gmail.com
Walt Frazier Realty Inc.,110 Burns Street,Eastaboga,AL,36260,256-236-0600,,wavig@cableone.net
Vision Real Estate Services,750 Forrest Avenue Suite 211,Gadsden,AL,35901,256-744-2064,,christopher.g.capps@gmail.com
Venture Realty & Construction LLC,2244 Centerpoint Parkway Ste 207,Birmingham,AL,35235,205-319-4300,205-319-4400,demetris.heard@yahoo.cm
"Vintage Properties, LLC",1517 Rainbow Drive,Gadsden,AL,35901,256-547-3100,256-547-0005,vintagprop@aol.com
Vision Real Estate Services,750 Forrest Avenue Suite 211,Gadsden,AL,35901,256-744-2064,,christopher.g.capps@gmail.com
Vast.com,"111 West 6th Street, Ste 200",Austin,TX,78701,512-531-9046,,vres-payables@vast.com
"Vinson & McCord Realty, LLC","3100 Lorna Rd., Ste. 310",Birmingham,AL,35216,205-978-1627,205-978-3397,svinrealty@yahoo.com
U. S. Realty,180 West Valley Avenue,Birmingham,AL,35209,205-942-1212,205-942-1101,bward@bellsouth.net
Trustmark Bank,One Inverness Center Parkway Ste 201,Birmingham,AL,35242,205-995-4602,,bhendrix@trustmark.com
Trsoft dba planetRE,"2530 Berryessa Road, #350",San Jose,CA,95132,408-507-8128,,idxfeed@planetre.us
Triple A Relocation Realty,6784 Old Springville Road,Pinson,AL,35126,888-966-6878,,contact@aaarelocation.realestate
Tribus,5640 B Telegraph Rd,St Louis,MO,63129,312-957-8846,,idx@tribusgroup.com
Trevor E. Phillips,700 Louisana St. No. 900,Houston,TX,77002,713-547-3694,713-547-3698,trevor.e.phillips@gmail.com
Triple A Relocation Realty,6784 Old Springville Road,Pinson,AL,35126,888-966-6878,,contact@aaarelocation.realestate
Trinity Development,2901 Crescent Avenue,Birmingham,AL,35209,205-266-0426,,cstanfarrell@gmail.com
"Trammel Realty, Inc.",3 Office Park Cir Suite 302,Birmingham,AL,35223,205-966-2948,205-639-1943,casanovaproperties@gmail.com
"Trading Earth, Inc.","500 Southland Dr., Ste. 230",Birmingham,AL,35226,205-254-0000,205-776-8980,anneemichaels@gmail.com
Urban Realty Partners LLC,"2 North 20th Street, Suite 1320",Birmingham,AL,35203,205-862-5507,,aw@urbanrealtybhm.com
Underwood Appraisals,125 Windsor Lane,Pelham,AL,35124,205-620-1773,205-663-3931,veronica@underwoodappraisals.com
Town Square Realty,490 N Wildwood Cir. Ste. 180,Homewood,AL,35209,205-945-4663,205-945-4645,tina@townsquare4ahome.com
Urban Property Holdings,4001 3rd Ave S,Birmingham,AL,35222,214-662-3592,,emily@upbhm.com
UNU Group,"2028 Kentucky Ave., Ste. 107",Birmingham,AL,35216,205-281-6654,,kimberly_anthony@msn.com
UList Realty,"509 Liberty Road, Ste. C",Flowood,MS,39232,601-832-2020,888-351-5977,brad@burlesongroup.com
U Build Realty LLC,8072 Pecan Drive,Bessemer,AL,35022,205-924-3664,205-425-6334,Sandra@UBuildLLC.com
Tynes Development Corp,820 Shades Creek Pkwy.,Birmingham,AL,35209,205-877-3199,205-877-3198,astidham@tynesdevelopment.com
TorchX,"206 N Beach St, #204",Daytona,FL,32114,000-000-0000,,support@torchx.com
"Turn Key Realty, LLC","1214 Decatur Hwy., Ste. 106",Fultondale,AL,35068,205-841-2250,,jessica@turnkeyal.com
"Tortorigi Properties, Inc.",122 N Chalkville Rd No. 201,Trussville,AL,35173,205-243-4667,,jtortorigi@charter.net
Tutt Real Estate LLC,6352 2nd Avenue,Thomaston,AL,36783,334-627-4004,,info@tuttland.com
Today's Home,"1904 Indian Lake Drive, #200",Birmingham,AL,35244,205-588-8282,,deb@deblong.com
"TLC Real Estate, LLC",2129 Moonbrook Drive,Dadeville,AL,36853,256-500-2394,,audreyemoore@yahoo.com
TMI Real Estate,4524 Southlake Pkwy #16,Birmingham,AL,35244,205-985-1010,205-985-1026,tommurphy@tmirealestate.com
Tinsley Realty Company,"200 Office Park Dr, Suite 117",Birmingham,AL,35223,205-871-7299,205-423-0909,roye@apprsl1.com
Three Parks Properties,"13603 Marina Pointe Dr., A620",Marina Del Rey,CA,90292,205-223-1424,213-536-2069,GabrielMCrouch@gmail.com
The Chandler Group,1329 Forestdale Blvd Ste 204,Birmingham,AL,35214,205-531-5208,,cassandra@thechandlergroup.org
The Urban Real Estate Group,8933-C Roebuck Blvd,Birmingham,AL,35206,205-815-5727,205-833-2590,rbutlersr@yahoo.com
"The Carter Group LLC, REALTORS","830 Willow Tree Cir., Ste 2",Cordova,TN,38018,901-753-7222,,raeann@raeann.org
Thackerson Realty,800 North Street E,Talladega,AL,35160,256-362-8411,256-362-8447,david.owen@charter.net
The Brokerage LLC,4000 Eagle Point Corp Drive,Birmingham,AL,35242,205-900-7715,,scotthowell3@gmail.com
TerraValue Real Estate,P.O. Box 1501,Austin,TX,78767,512-569-5498,512-842-7117,alabama@terravalue.net
"TEAMMASSEYPROPERTIES, LLC",3183 D Pelham Parkway,Pelham,AL,35124,205-685-1110,877-744-4241,franSmassey@yahoo.com
"The Realty Zone, LLC","1970 Chandalar Ofc Pk, Ste. 7",Pelham,AL,35124,205-966-1270,205-678-3012,daviddownard@bellsouth.net
Taylor Real Estate Solutions Series,613 Pelham Road South Suite 2,Jacksonville,AL,36265,256-644-4115,,btjsu11@gmail.com
The Realty Store LLC,"3100 Lorna Rd, Suite 314",Birmingham,AL,35216,205-739-1463,,ccrouv@yahoo.com
The Prosperous Realty Group,85 Bagby Drive Suite 353,Birmingham,AL,35209,205-948-6059,,kebattle.kb@gmail.com
"The Real Estate Group, Inc.",2540 Valleydale Rd,Birmingham,AL,35244,205-987-5995,,realestategroup1@bellsouth.net
The Property Professionals LLC,130 20th Court NW,Birmingham,AL,35215,205-815-4300,205-815-4241,liSaunders@aol.com
The Oakley Group,1601 21st Street South,Birmingham,AL,35205,205-918-0785,205-918-0787,doakley@hpapts.com
The Realty Pros,418 Martin St S,Pell City,AL,35128,205-884-0400,205-884-0401,realtyprospc@gmail.com
"The Phoenix Realty Group, Inc.",104 Overdale Ct,Madison,AL,35756,256-503-4943,,rhondalboyette16@gmail.com
"The Paulk Group, Inc.",400 Eagle Pointe Corporate Dr.,Birmingham,AL,35242,205-995-8464,205-437-0311,paulkp@charter.net
The Meadows Agency,6100 McClellan Blvd,Anniston,AL,36206,256-820-5300,256-820-0473,emeadow2@bellsouth.net
"Switch Realty, LLC","2709 Pelham Parkway, Ste. B",Pelham,AL,35124,205-624-2520,,ann@teamcapps.com
SweetHomes Alabama LLC,867 Redmount Drive,Tuscaloosa,AL,35404,205-310-4272,,srystr77@gmail.com
Sweet Home Alabama Realty,535 County Road 831,Cullman,AL,35057,256-339-5883,866-735-0068,lorraine@sweethomealabamarealty.com
Sweet Homelife Oneonta,105 B 3rd Street North,Oneonta,AL,35121,205-285-8788,205-285-8789,kellibrownrealtor@gmail.com
Sustainable Growth Properties,1634 Montgomery Highway,Hoover,AL,35216,205-365-7400,205-823-3933,stevestamp@sustainablegrowthproperties.com
"SVN Kahn Properties, Inc.",3600 Clairmont Avenue,Birmingham,AL,35222,205-933-7788,205-933-2936,Gayle.belcher@svn.com
Sustainable Growth Properties,1634 Montgomery Highway,Hoover,AL,35216,205-365-7400,205-823-3933,stevestamp@sustainablegrowthproperties.com
Sweet Homelife,2722 Mt. Olive Road,Mount Olive,AL,35117,205-285-8788,,KimberlyBibb72@yahoo.com
Summit Realty Company,"2000 Crestwood Blvd., Ste. 305",Birmingham,AL,35210,205-951-2355,205-951-2366,baird@summitrealtysold.com
"Susie Weems Real Estate, LLC",314 Albert Rains Blvd.,Gadsden,AL,35901,256-546-4663,256-546-9995,bgreer@weems-realestate.com
Sullivan Realty,2410 5th Ave South,Birmingham,AL,35233,205-978-5400,205-823-1516,SullivanRealty@charter.net
"Stringfellow Properties, Inc.",2400 Mountain Drive Suite 103,Birmingham,AL,35226,205-824-1459,205-824-8847,carl@stringprop.com
"Sue Holland Realty, LLC",216 South 5th Street,Gadsden,AL,35901,256-467-3555,,sueholland.realty@gmail.com
Strong Realty,501 Highway 74,Chelsea,AL,35043,205-612-2848,866-568-3702,mcdonald@stronglands.com
Stratford Real Estate,"8317 Railroad Avenue, Suite 101",Leeds,AL,35094,205-702-2222,205-699-8447,office@soldbystratford.com
Stan Smith Real Estate,51 Chapel Creek Lane,Fultondale,AL,35068,205-296-3815,,stansmithrealestate@gmail.com
