Name,Street,Address,Phone,Email,Website
EXIT River Rock Realty,P.O. Box 1431,"Millbrook, AL 36054-0031",334-290-5091,realtorhamner@gmail.com,
"Copeland, Franco, Screws &Gill",Post Office Box 347,"Montgomery, AL 36104-0347",334-834-1180,mfranco@copelandfranco.com,
SCOTT FERGUSON APPRAISALS,604 MORGAN LANE,"ENTERPRISE, Al 36330-3633",(334) 477-6789,SCOTTFERGUSON@ADELPHIA.NET,
Wallace & Moody Realty,7051 Fain Park Dr Suite 125,"Montgomery, AL 36117-7848",334-300-0398,wallacemoodyrealty1@yahoo.com,
"CENTURY 21 Lake Area Realty, Inc.",440 N. Broadnax Street,"Dadeville, AL 36853-2102",256-825-4800,rhonda@lakearearealty.net,
"BJJ Properties, LLC",PO Box 117,"Mount Meigs, AL 36057-0117",334-215-1977,bjohns@dubosecorp.com,
Realty Central,5300 Oak Tree Road Suite H,"Millbrook, AL 36054-2219",334-285-4646,betsy@realtycentralalabama.com,
Certainty Home Loans,8101 Seaton Place Suite B,"Montgomery, AL 36116-7205",334-213-2537,lharris@certaintyhomeloans.com,
First Realty of Greenville,100 W. Commerce St. Suite 102,"Greenville, AL 36037-2216",334-382-2688,glenn@froginc.com,
Pearl Realty,109 County Rd 64,"Deatsville, AL 36022-3356",334-306-5261,henryhharris@aol.com,
"Riley Real Estate, LLC.",122 Calhoun St.,"Alexander City, AL 35010-1932",256-234-2131,kennyriley@bellsouth.net,
Century 21 James Grant Realty,,,(334) 793-2200,ginagrant1@hotmail.com,jgrantrealty.com
A K Appraisals,249 Shell Road,"Georgiana, AL 36033-5006",334-437-1802,melissa_brogden@yahoo.com,
Silver Rain Realty,503 Greystone Way Unit D,"Prattville, AL 36066-7228",334-568-2011,keithpittard@realtor.com,
"Nicole Sloan Realty, LLC.",2770 Bell Rd. Suite 7,"Montgomery, AL 36117-6890",334-356-4288,nsloan@nicolesloanrealty.com,
"HOMETOWN REALTY, LLC",,,(334) 774-4663,ljohnson447@gmail.com,
Aronov Realty - Prattville,678 McQueen Smith Road N.,"Prattville, AL 36066-3314",334-365-9999,jimmy.austin@aronov.com,
Brown Properties Inc,563 George Todd Dr.,"Montgomery, AL 36117-2233",334-273-8160,brownproperties1945@gmail.com,
DALEVILLE REAL ESTATE INC.,,,(334) 598-4433,,
"Phoenix Realty Group, Inc.",104 Overdale Ct.,"Madison, AL 35756-6701",256-503-4943,rhondallong@gmail.com,
Mallory Realty,PO Box 6056,"Montgomery, AL 36106-0056",334-262-7773,cmallory@mindspring.com,
"Garry S. McAnally, LLC.",1943 Berry Chase Place,"Montgomery, AL 36117-6894",334-676-3210,jon@mcannallylaw.com,
Max Credit Union,400 Eastdale Circle,"Montgomery, AL 36117-2114",334-215-4866,khill@mymax.com,www.mymax.com
New Waters Realty LLC.,2239 Marler Road,"Pike Road, AL 36064-3801",334-272-3200,Jennifer@TheWatersAL.com,www.thewatersal.com
"JAMES BOWMAN REALTY, INC.",,,(334) 794-7211,PAM@DOTHANFORSALE.COM,
"Garth Realty Group, LLC.",400 Eastern Boulevard Ste 201,"Montgomery, AL 36117-2043",334-593-0489,kenysesavage@gmail.com,
Alabama Real Estate LLC,7833 Vaughn Road,"Montgomery, AL 36116-6709",334-277-6116,juliedettwiler@yahoo.com,
Dabwood LLC.,1430 I-85 Parkway Suite 210,"Montgomery, AL 36106-3685",334-386-3822,RSheldonlaw@gmail.com,
Freedom HW,1186 E 4600 Suite 110,"Ogden, UT 84403-4896",888-495-2249,marketing@freedomhw.com,www.freedomhw.com
Monarch Appraisal Services,Post Office Box 11349,"Montgomery, AL 36104-5139",334-262-1672,monarchbrett@aol.com,
EXIT River Rock Realty,P.O. Box 1431,"Millbrook, AL 36054-0031",334-290-5091,realtorhamner@gmail.com,
"1st Choice Properties, LLC.",2635 Valleydale Rd. Suite 200,"Hoover, AL 35244-2716",205-433-9811,asitton7@gmail.com,
Realty Redefined,470 Pinecrest Rd.,"Prattville, AL 36067-3506",334-430-5842,ddbrobst@gmail.com,
Shawn Murphy Appraisal Serv. LLC.,8741 Lillington Circle,"Montgomery, AL 36117-0910",334-395-6434,shawnmurphy@knology.net,
John Lewis Appraisal,1111 Lake Lane,"Demopolis, AL 36732-3256",334-341-9505,john.lewisinsurance@yahoo.com,
Southern Star Property Mgnt,480 McQueen Smith Rd. S,"Prattville, AL 36066-5631",334-365-4679,ltv79@aol.com,
"Legacy Properties, LLC",2901 Citizens Parkway,"Selma, AL 36701-3916",334-874-9346,lhicks@legacypropertiesselma.com,
Nathan Stephen Appraisal Serv,P.O. Box 242236,"Montgomery, AL 36124-2236",334-799-7262,nestephen@knology.net,
"eXp Realty, LLC. - Southern Branch",5027 Mercer Street Suite 104,"Montgomery, AL 36117-6784",888-923-5547,al.broker@exprealty.com,
Storing Up Treasures Realty,103 N. Powell Street,"Union Springs, AL 36089-1624",334-738-3524,sharrisebaltimore@yahoo.com,
I Shoot Houses,1020 Smith Mountain Drive,"Jacksons Gap, AL 36861-2598",334-320-7486,sherry@go2REassistant.com,
Certainty Home Loans,8101 Seaton Place Suite B,"Montgomery, AL 36116-7205",334-213-2537,lharris@certaintyhomeloans.com,
Pilgreen Real Estate Company,10270 Highway 80 East,"Montgomery, AL 36117-6060",334-272-3697,epilgreen@gmail.com,
David Herman Realty,P.O. Box 70672,"Montgomery, AL 36107-0672",334-207-2464,porterfield714@yahoo.com,
"New World Real Estate, LLC.","981 hwy 98 E, suite 3-256","Destin, AL 32541-2584",251-554-1657,brenda@bmclean.net,wwwemeraldcoastrealtors.com
The Appraiser Group LLP,P.O. Box 208,"Troy, AL 36081",334-268-2255,kellie@TheAppraiserGroup.com,
Community Realty Estate Appr,35 Creek Ct.,"Montgomery, AL 36117-4116",334-799-7757,communityappraisals@ymail.com,
"Colonial Residential, LLC.",3107 Pinehurst,"Montgomery, AL 36111",334-270-6700,jfarrior@colonialresidential.net,
River Region Realty Group LLC,"445 Dexter Ave., Suite 4050","Montgomery, AL 36104-3867",334-557-7060,treysippial@gmail.com,http://www.riverregionrealtygroup.com
Scarborough & Associates,1322 Old Oak Place,"Montgomery, AL 36117-6880",334-323-1142,marriess613@aol.com,
LanMac Realty,155 Coliseum Boulevard,"Montgomery, AL 36109-2707",334-277-5546,barbara.lanmac@knology.net,
"All Safe Inspections, LLC",P.O. Box 210433,"Montgomery, AL 36121-0433",334-558-1719,dougthornton@bellsouth.net,www.allsafeinspections.com
Riverview Real Estate,140 Orline Street,"Wetumpka, AL 36092-2705",334-462-5263,robinsonrealtor@msn.com,
La Mansion Properties,8151 Vaughn Road,"Montgomery, AL 36116-6701",334-271-2882,herbshopwellness@gmail.com,
"Watson Appraisals, Inc.",P.O. Box 213,"Fairhope, AL 36532",251-923-0115,dreww@eqval.com,
Trustmark National Bank,248 E. Capitol Street,"Jackson, MS 39201-2503",601-208-6077,dloflin@trustmark.com,
"Jones and Jones Real Estate, LLC",42 Greenleaf Lane,"Rockford, AL 35136-2116",334-301-7789,kwanza@jonesandjones.info,
PMI River Region,5925 Carmichael Rd.,"Montgomery, AL 36117-2518",334-819-5414,electialove@hotmail.com,
The Brokerage House,6330 Woodmere Blvd.,"Montgomery, AL 36117-2500",334-277-8172,boydbvrs@gmail.com,
"Providence Realty, LLC",8449 Crossland Loop Suite 124,"Montgomery, AL 36117-0919",334-312-2244,lafemmeinc@bellsouth.net,
W David Price,1262 Perry Hill Rd,"Montgomery, AL 36109-5200",334-313-0366,ywdprice@yahoo.com,
Goodson Appraisal Service,476 Weatherby Trl,"Prattville, AL 36067-3857",256-825-8038,srvcs_w@bellsouth.net,
New Waters Realty LLC.,2239 Marler Road,"Pike Road, AL 36064-3801",334-272-3200,Jennifer@TheWatersAL.com,www.thewatersal.com
"America's Preferred Home Warranty, Inc.",2727 Spring Arbor Rd.,"Jackson, MI 49203-3605",800-648-5006,hhenry@aphw.com,aphw.com
Hardy Appraisal Service,2474 Gunston Court,"Auburn, AL 36832-3420",334-740-7336,hardyappraisal@charter.net,http://www.hardyappraisal.com
D.R. Horton Homes - Birmingham,2188 Parkway Lake Dr. Ste 200,"Hoover``, AL 35244-1803",334-409-6984,snulph@drhorton.com,
Community Realty Estate Appr,35 Creek Ct.,"Montgomery, AL 36117-4116",334-799-7757,communityappraisals@ymail.com,
Property Services,P O Box 2452,"Selma, AL 36702-2452",334-874-6600,nrbps@bellsouth.net,
"Hal F Leary Home Inspect., LLC",639 Oliver Road,"Montgomery, AL 36117-2244",334-270-8899,hallearyhomeinspector@gmail.com,
DESTINY REALTY,,,(334) 493-0067,DESTINY.REALTY@OPPCATV.COM,WWW.DESTINYREALTY-1.COM
Bernice Tharp Realty,2939 Chestnut Street,"Montgomery, AL 36109-3009",334-288-7653,berniecy@aol.com,
Interlinc Mortgage,6985 Halcyon Park Dr.,"Montgomery, AL 36117-6943",334-399-3732,snickles@lincloan.com,
BRYARS APPRAISALS,,,,,
"WB Realty, LLC",5510 Wares Ferry Rd Suite U25,"Montgomery, AL 36117-2111",334-387-2301,rockybrownjr@aol.com,
Waynes Pest Control,105 Waugh Industrial Park Dr.,"Pike Road, AL 36064",334-332-8050,charley.farmer@callwaynes.com,
JERRY DELL APPRAISALS,,,(334) 347-4555,,
DeVaughn Realty,75 Lightwood Road,"Deatsville, AL 36022-3494",334-322-7719,annetted3861@hotmail.com,
House & Home Real Estate,2857 Zelda Rd.,"Montgomery, AL 36106-2614",334-230-5777,carol@HouseValuesInMontgomery.com,houseandhome.house
CENTURY 21 GATEWAY REALTY OF OZARK,,"OZARK, Al 36361-3636",(334) 774-4961,C21.Gateway@troycable.net,
SHIVER APPRAISALS,,,(334) 702-0121,pwshvr@aol.com,
"Lake Dog Realty, LLC.",2271 Red Hill Rd,"Eclectic, AL 36024-4433",334-306-7921,jimmybakerrealtor@gmail.com,
"Farrow Burks Appraisals, LLC.",P.O. Box 230723,"Montgomery, AL 36123-0723",334-399-4377,farrow.burks@gmail.com,
Dean Realty,3458 Lexington Road,"Montgomery, AL 36111-1330",334-613-8111,endeansr@aol.com,
COURSON APPRAISALS,,,(334) 504-0279,coursonappraisals@gmail.com,
COLDWELL BANKER PRESTIGE HOMES AND REAL ESTATE,,,(334) 347-7971,cbadmin@fortruckerareahomes.com,
"JAMES BOWMAN REALTY, INC.",,,(334) 794-7211,PAM@DOTHANFORSALE.COM,
The Irvine Group LLC,1378 Hwy 31 N,"Prattville, AL 36067-1922",334-301-9668,earlirvine@icloud.com,
Mike Noble Appraisal. LLC,280 Harrogate Springs Rd.,"Wetumpka, AL 36093-2301",334-799-6978,mike@mikenobleappraisals.com,
BRYARS APPRAISALS,,,,,
"Residential Alabama, LLC.",4201 Nordale Dr.,"Montgomery, AL 36116-2300",334-424-3100,towannahsmith@gmail.com,
FlatFee.com,5830 Sheridan Street,"Hollywood, FL 33021-3253",954-965-3990,info@flatfee.com,
Sun Real Estate,233 D Deatsville Hwy,"Millbrook, AL 36054-1636",334-285-0800,sunestate@bellsouth.net,
EMPIRE REAL ESTATE,,,(334) 699-8222,EMPIRE.REALESTATE@Aim.COM,
"Douglas F Hixon, Appraiser",1785 Taliaferro Trail,"Montgomery, AL 36117-7758",334-215-0388,dfhixon@bellsouth.net,
,,,334-582-1300,maryalyce@callanoutlaw.com,
"Aronov Insurance, Inc.",3500 Eastern Blvd,"Montgomery, AL 36116-1781",334-277-1000,Angelia.Stewart@aronov.com,
Alabama Real Estate LLC,7833 Vaughn Road,"Montgomery, AL 36116-6709",334-277-6116,juliedettwiler@yahoo.com,
"Realty South, Chilton",1500 7th Street N,"Clanton, AL 35045-2122",205-755-7719,pbingham@realtysouth.com,
Summit Realty Group LLC,3760 Coosada Rd,"Millbrook, AL 36054-3349",334-285-3383,chadigs@bellsouth.net,
REMAX Cornerstone Realty,10406 Hwy. 231,"Wetumpka, AL 36092-5366",334-478-3825,chadbarrett1@yahoo.com,
Marketplace Housing LLC,17197 N Laurel Park Dr Ste 340,"Livonia, MI 48152-7913",800-331-0646,mike.kalis@marketplacehomes.com,
DESTINY REALTY,,,(334) 493-0067,DESTINY.REALTY@OPPCATV.COM,WWW.DESTINYREALTY-1.COM
,1841 Honeysuckle Road,"Dothan, AL 36305",334-702-3595,susanscott@kw.com,
Charles Nicrosi Real Estate,PO Box 11633,"Montgomery, AL 36111-0633",334-274-1121,cnicrosi@yahoo.com,
"HomeStop Realty, LLC.","4252 Carmichael Road, Ste 224","Montgomery, AL 36106-2804",334-233-3254,isellhomes334@gmail.com,
,1841 Honeysuckle Road,"Dothan, AL 36305",334-702-3595,susanscott@kw.com,
Montgomery Advertiser,Post Office Box 1000,"Montgomery, AL 36101-1000",334-261-1536,kmount@gannett.com,www.montgomeryadvertiser.com
Williams and Williams,710 Deer Run Trail,"Shorter, AL 36075",334-312-7214,bern.will32@yahoo.com,
"Church & Church Appraisals, LLC",175 COUNTY RD 100,"Deatsville, AL 36022-2740",334-358-7779,rick_church@bellsouth.net,
"Legacy Properties, LLC",2901 Citizens Parkway,"Selma, AL 36701-3916",334-874-9346,lhicks@legacypropertiesselma.com,
Alabama Assoc. of REALTORS,PO Box 4070,"Montgomery, AL 36103-4070",334-262-3808,,
James E Lester Jr Real Estate,283 County Road 1 North,"Jones, AL 36745-3201",850-814-8102,,
"The Thomas Hill Group, L.L.C",2921 Marti Lane Ste. 3-C,"Montgomery, AL 36116-3187",334-281-5118,tthgroupllc@gmail.com,
Waynes Pest Control,105 Waugh Industrial Park Dr.,"Pike Road, AL 36064",334-332-8050,charley.farmer@callwaynes.com,
"Montgomery Inspection, LLC.",7218 Timbermill Dr.,"Montgomery, AL 36117-5190",334-531-9664,paul@montgomeryinspection.com,montgomeryinspection.com
RE/MAX Tri-Star,1322 Old Oak Place,"Montgomery, AL 36117-6880",334-244-2400,watkins@remax-montgomery-al.net,
"Benchmark Land Company, LLC",5323 Perimeter Pkwy Ct,"Montgomery, AL 36116-5125",334-657-6210,benchmarkland@bellsouth.net,
River Bank & Trust,7075 Halcyon Park Dr,"Montgomery, AL 36117-7763",334-290-2681,sstringer@riverbankandtrust.com,
"Lucretia Cauthen Realty, LLC",PO Box 607,"Millbrook, AL 36054-0012",334-285-2310,ccauthenwd@aol.com,
"Trinity Real Estate Group, LLC",12575 Wares Ferry Road,"Montgomery, AL 36117-5523",334-551-1000,MaryCharlesRampy@aol.com,
"Commercial Valuation Services, Inc.",2140 11th Avenue Suite 208,"Birmingham, AL 35205-2840",205-918-2000,kholcomb@cvsappraisals.com,
Morris V.I.P. Realty,"5947 Carmichael Road, Suite 1","Montgomery, AL 36117-2559",334-244-9000,MORRIS.VIP.REALTY@ATT.NET,alamls.com/morrisviprealty
RE/MAX PREMIER,101 Legacy Drive,"ENTERPRISE, Al 36330-3633",(334) 393-0205,becky@realtor.com,
Dabwood LLC.,1430 I-85 Parkway Suite 210,"Montgomery, AL 36106-3685",334-386-3822,RSheldonlaw@gmail.com,
Hampstead Community Realty LLC,5251 Hampstead High St. # 205,"Montgomery, AL 36116-6758",334-270-6730,fsparkman@colonial-company.com,
"Kelly Realty, LLC.",2477 East South Blvd.,"Montgomery, AL 36116-1023",601-594-3594,jeremykelly6@gmail.com,www.krmontgomeryhomes.com
HomeStory Real Estate Services,10657 Essex Square Boulevard,"Fort Myers, FL 33913",512-524-9335,lroberts@homestory.co,
Stinson Appraisal Services,13 Plantation Way,"Deatsville, AL 36022",334-538-8449,stinsonappraiserservices@yahoo.com,
Securance Realty,"7051 Fain Park Dr, Suite 200","Montgomery, AL 36117-7807",334-268-3071,securancerealty@gmail.com,
"HomeStop Realty, LLC.","4252 Carmichael Road, Ste 224","Montgomery, AL 36106-2804",334-233-3254,isellhomes334@gmail.com,
River Bank & Trust,7075 Halcyon Park Dr,"Montgomery, AL 36117-7763",334-290-2681,sstringer@riverbankandtrust.com,
"Davis & Copeland REALTORS, LLC.",2815-A Zelda Road,"Montgomery, AL 36106-2727",334-244-0550,beth@davisandcopeland.com,
Barrs Appraisal Services,2800 Zelda Rd. Suite 100-9,"Montgomery, AL 36106-2685",334-215-4377,mbarrs@knology.net,
CENTURY 21 REGENCY REALTY,,,(334) 347-0048,,
eList Realty Alabama LLC,15932 Parkside Dr.,"Parker, CO 80134-3741",205-379-0475,steven.hayden@elistrealty.com,
"River Region Appraisals, LLC",PO Box 182,"Wetumpka, AL 36092",334-399-8250,bbautrey@aol.com,
"Hal F Leary Home Inspect., LLC",639 Oliver Road,"Montgomery, AL 36117-2244",334-270-8899,hallearyhomeinspector@gmail.com,
Realty Central,5300 Oak Tree Road Suite H,"Millbrook, AL 36054-2219",334-285-4646,betsy@realtycentralalabama.com,
WIREGRASS BOARD OF REALTORS,,,(334) 347-9614,info@wiregrassboardofrealtors.com,
Town & Country Real Estate Of Selma,890 Ravenwood Dr.,"Selma, AL 36701-6705",334-872-1122,mikebruner@selmahomes.net,
"Douglas F Hixon, Appraiser",1785 Taliaferro Trail,"Montgomery, AL 36117-7758",334-215-0388,dfhixon@bellsouth.net,
"Lucretia Cauthen Realty, LLC",PO Box 607,"Millbrook, AL 36054-0012",334-285-2310,ccauthenwd@aol.com,
Home Check Consultants,P.O. Box 210553,"Montgomery, AL 36121-0553",334-300-1035,homecheckconsultants@gmail.com,homecheckpro.net
"Trinity Real Estate Group, LLC",12575 Wares Ferry Road,"Montgomery, AL 36117-5523",334-551-1000,MaryCharlesRampy@aol.com,
COURSON APPRAISALS,,,(334) 504-0279,coursonappraisals@gmail.com,
Property Services,P O Box 2452,"Selma, AL 36702-2452",334-874-6600,nrbps@bellsouth.net,
Amerisell Realty,210 W. Tuscaloosa St.,"Florence, AL 35630-5428",256-627-7168,amerisell.realty@gmail.com,www.mls449.com
Scarborough & Associates,1322 Old Oak Place,"Montgomery, AL 36117-6880",334-323-1142,marriess613@aol.com,
Lowder New Homes Sales Inc,5772 Hampstead High St # 200,"Montgomery, AL 36116-6755",334-270-6789,jrutland@lowdernewhomes.com,lowdernewhomes.com
River Bank & Trust,7075 Halcyon Park Dr,"Montgomery, AL 36117-7763",334-290-2681,sstringer@riverbankandtrust.com,
House & Home Real Estate,2857 Zelda Rd.,"Montgomery, AL 36106-2614",334-230-5777,carol@HouseValuesInMontgomery.com,houseandhome.house
"Montgomery Inspection, LLC.",7218 Timbermill Dr.,"Montgomery, AL 36117-5190",334-531-9664,paul@montgomeryinspection.com,montgomeryinspection.com
Atlas Appraisal Service,209 Doster Street,"Prattville, AL 36067",334-303-1419,appraiser@knology.net,
MARDEN LLC,,"DOTHAN, Al 36305-3630",(334) 714-5034,JMARDEN@GRACEBA.NET,WWW.MARDENAPPRAISALS.COM
Xome Inc.,3040 Independence Drirve,"Birmingham, AL 35226-4157",205-823-7058,brian@reo-group.net,
The Appraiser Group LLP,P.O. Box 208,"Troy, AL 36081",334-268-2255,kellie@TheAppraiserGroup.com,
"Flores International Rlty, llc.",8650 Minnie Brown Road,"Montgomery, AL 36117-7433",334-202-4806,flores@floresrealtor.com,floresinternationalrealty.com
COURSON APPRAISALS,,,(334) 504-0279,coursonappraisals@gmail.com,
"Best Move Realty, LLC.",5771 Carmichael Parkway,"Montgomery, AL 36117-2343",334-414-3572,ollyet@bestmoverealty.net,
"Nicole Sloan Realty, LLC.",2770 Bell Rd. Suite 7,"Montgomery, AL 36117-6890",334-356-4288,nsloan@nicolesloanrealty.com,
Cadence Bank,6836 Atlanta Hwy,"Montgomery, AL 36117-4212",334-213-2636,connie.marie.arthur@cadencebank.com,
Cornerstone Realty LLC,519 Lauderdale St,"Selma, AL 36701-4528",334-872-0441,jewellw@zebra.net,
Country Financial,7020 Vaughn Road,"Montgomery, AL 36116-1370",334-271-1933,bryan.decapite@countryfinancial.com,countryfinancial.com/bryan.decapite
EXIT Realty Pros,3501 Sandy Oaks Drive,"Saraland, AL 36571-8725",251-679-0006,sheronatwell@aol.com,
REMAX Cornerstone Realty,10406 Hwy. 231,"Wetumpka, AL 36092-5366",334-478-3825,chadbarrett1@yahoo.com,
MARK BOOTHE APPRAISALS,,,(334) 493-1040,bootheandassociates@gmail.com,
"Residential Property Grp, LLC.",PO Box 210999,"Montgomery, AL 36121-0999",334-481-0116,jason@rpg-realty.com,
FlatFee.com,5830 Sheridan Street,"Hollywood, FL 33021-3253",954-965-3990,info@flatfee.com,
Gordy Appraisal Services,768 Ingram Road,"Elmore, AL 36025-1151",334-517-4385,gordyappraisals@gmail.com,
Cadence Bank,6836 Atlanta Hwy,"Montgomery, AL 36117-4212",334-213-2636,connie.marie.arthur@cadencebank.com,
D.R. Horton Homes - Birmingham,2188 Parkway Lake Dr. Ste 200,"Hoover``, AL 35244-1803",334-409-6984,snulph@drhorton.com,
I Shoot Houses,1020 Smith Mountain Drive,"Jacksons Gap, AL 36861-2598",334-320-7486,sherry@go2REassistant.com,
"Harvill Realty Group, LLC",5251 Hampstead High St Suite 2,"Montgomery, AL 36117-6744",334-270-9600,larry@harvillrealtygroup.com,
Property Services,P O Box 2452,"Selma, AL 36702-2452",334-874-6600,nrbps@bellsouth.net,
Xome Inc.,3040 Independence Drirve,"Birmingham, AL 35226-4157",205-823-7058,brian@reo-group.net,
Tri-County Homes,884 Lagoon Commercial Blvd,"Montgomery, AL 36117-2205",334-221-1149,tricounty@publicationspress.com,www.tri-countyhomesonline.com
Government Agencies,4280 Carmichael,"Montgomery, AL 36106",334-396-0256,brad.owen@montgomeryareahomes.com,
"Bell & Corwin, Inc.",PO Box 11731,"Montgomery, AL 36111-0731",334-279-0220,sammy@bellandcorwin.com,
"Residential Alabama, LLC.",4201 Nordale Dr.,"Montgomery, AL 36116-2300",334-424-3100,towannahsmith@gmail.com,
The Law Offices of Troy King,7065 Fain Park Drive Suite 203,"Montgomery, AL 36117-7864",334-215-4440,jw@troykinglaw.com,
"S & R Home Inspections, LLC",2010 County Rd. 85,"Prattville, AL 36066-6732",334-799-4235,srinspections@gmail.com,
"Lake Breeze Montgomery, LLC.",8411 Kowaliga Rd.,"Eclectic, AL 36024-3751",334-857-2141,shelbypitts2@gmail.com,
Tuskegee Realty,PO BOX 830704,"Tuskegee, AL 36083-0704",334-727-1107,jkbiswas@aol.com,
"Best Move Realty, LLC.",5771 Carmichael Parkway,"Montgomery, AL 36117-2343",334-414-3572,ollyet@bestmoverealty.net,
"eXp Realty, LLC. - Southern Branch",5027 Mercer Street Suite 104,"Montgomery, AL 36117-6784",888-923-5547,al.broker@exprealty.com,
Katherine Tew Realty,584 County Road 64,"Deatsville, AL 36022-3379",334-569-2080,KTewRealty@gmail.com,
Stinson Appraisal Services,13 Plantation Way,"Deatsville, AL 36022",334-538-8449,stinsonappraiserservices@yahoo.com,
JOHNSON REALTY,,,(334) 897-5300,TIMJ63@AOL.COM,
"Beringer Realty, LLC",2800 Zelda Rd Ste 100-6,"Montgomery, AL 36106-2685",334-260-8866,arb44@aol.com,
"Commercial Valuation Services, Inc.",2140 11th Avenue Suite 208,"Birmingham, AL 35205-2840",205-918-2000,kholcomb@cvsappraisals.com,
"Bell & Corwin, Inc.",PO Box 11731,"Montgomery, AL 36111-0731",334-279-0220,sammy@bellandcorwin.com,
Bees Realty,P.O. Box 210804,"Montgomery, AL 36121-0804",334-220-4628,bepade3@aol.com,
Eastern Shore Real Estate & Rentals,25421 State Hwy 181,"Daphne, AL 36526",205-533-4205,itslettuce@gmail.com,
Sanford and Associates,1544 Ann St.,"Montgomery, AL 36107-3114",334-221-3557,dsanford5@yahoo.com,
SOUTHEAST APPRAISAL SERVICE,,,(334) 393-5425,,
WIREGRASS BOARD OF REALTORS,,,(334) 347-9614,info@wiregrassboardofrealtors.com,
River Region Realty Group LLC,"445 Dexter Ave., Suite 4050","Montgomery, AL 36104-3867",334-557-7060,treysippial@gmail.com,http://www.riverregionrealtygroup.com
Campbell & Company,19057 Montgomery Hwy,"Highland Home, AL 36041",334-207-8189,gregcampbell@mon-cre.net,
"HomeLight, Inc.",100 Chesterfield Business Pkwy,"Chesterfield,, MO 63005-1271",480-900-7282,mls@homelight.com,
Sandra Nickel Hat Team REALTOR,1044 E Fairview Ave,"Montgomery, AL 36106-2145",334-834-1500,sandra@HatTeam.com,
A K Appraisals,249 Shell Road,"Georgiana, AL 36033-5006",334-437-1802,melissa_brogden@yahoo.com,
"Legacy Properties, LLC",2901 Citizens Parkway,"Selma, AL 36701-3916",334-874-9346,lhicks@legacypropertiesselma.com,
"Thomas & Land Real Estate Group, LLC.",744 S. Memorial Dr.,"Prattville, AL 36067-5712",334-356-6310,mland.realtor@gmail.com,
Howard W. Haynie & Assoc. Inc.,201 Eagle Ridge,"Alexander City, AL 35010-9243",334-312-0693,howard@homeonlakemartin.com,
Realty Connection,2066 Fairview Avenue,"Prattville, AL 36066-5241",334-491-0049,ahomewithrobin@yahoo.com,www.ahomewithrobin.com
Riverview Real Estate,140 Orline Street,"Wetumpka, AL 36092-2705",334-462-5263,robinsonrealtor@msn.com,
Knox Pest Control,1570 North Eastern Blvd.,"Montgomery, AL 36117-2225",334-213-0410,jamessmith@knoxpest.com,
WILLIAMSON APPRAISAL,706 E PARK AVE,"OPP, Al 36467-3646",(334) 493-0049,cwappraisal@oppcatv.com,
Country Financial,7020 Vaughn Road,"Montgomery, AL 36116-1370",334-271-1933,bryan.decapite@countryfinancial.com,countryfinancial.com/bryan.decapite
Goodson Appraisal Service,476 Weatherby Trl,"Prattville, AL 36067-3857",256-825-8038,srvcs_w@bellsouth.net,
Pete Prescott Realty,209 Cashion Ave,"Wetumpka, AL 36092-0018",334-850-8222,pete806@bellsouth.net,
"JAMES BOWMAN REALTY, INC.",,,(334) 794-7211,PAM@DOTHANFORSALE.COM,
EXIT Realty Partners,1345 Carmichael Way,"Montgomery, AL 36106-3629",334-356-7575,bernicehenderson.exit@yahoo.com,
The Appraiser Group LLP,P.O. Box 208,"Troy, AL 36081",334-268-2255,kellie@TheAppraiserGroup.com,
"HomeStop Realty, LLC.","4252 Carmichael Road, Ste 224","Montgomery, AL 36106-2804",334-233-3254,isellhomes334@gmail.com,
Dogwood Realty,3769 Hwy 14,"Millbrook, AL 36054-1942",334-285-9090,dogwoodrealty@msn.com,
First South Farm Credit,PO Box 31123,"Enterprise, AL 36331",334-774-2668,rkyles@firstsouthland.com,
Storing Up Treasures Realty,103 N. Powell Street,"Union Springs, AL 36089-1624",334-738-3524,sharrisebaltimore@yahoo.com,
Chris Dixon & Associates Inc,"101 Market Place, Suite 600","Montgomery, AL 36117-4912",334-271-3472,chris@dixonappraisal.com,
Alabama Gas Corporation,2951 Chestnut Street,"Montgomery, AL 36107-3009",334-241-4230,caroline.davis@energen.com,
"Montgomery Inspection, LLC.",7218 Timbermill Dr.,"Montgomery, AL 36117-5190",334-531-9664,paul@montgomeryinspection.com,montgomeryinspection.com
D.R. Horton Homes - Birmingham,2188 Parkway Lake Dr. Ste 200,"Hoover``, AL 35244-1803",334-409-6984,snulph@drhorton.com,
"Ami Mckinney Appraisals, LLC.",P.O. Box 231656,"Montgomery, AL 36123",334-220-2453,amimckinney@gmail.com,
Clark Realty,3820 Harrison Road,"Montgomery, AL 36109-4508",334-590-4450,johnyclark@att.net,
The Goodson Group,1975 Berry Chase Pl.,"Montgomery, AL 36117-6894",334-551-0225,bogoodson@charter.net,
Cook & Associates Attorneys at Law,4142 Carmichael Rd.,"Montgomery, AL 36106-2936",334-356-7879,swan.johnson@blackbeltlawyers.com,www.blackbeltlawyers.com
"Builder New Homes, Inc.",240 Peace Church Road,"Wetumpka, AL 36093-3869",334-567-7171,buildernewhomes@elmore.rr.com,
"Montgomery Inspection, LLC.",7218 Timbermill Dr.,"Montgomery, AL 36117-5190",334-531-9664,paul@montgomeryinspection.com,montgomeryinspection.com
ARC Realty Lake Martin Branch,8191 Seaton Pl,"Montgomery, AL 36116-7205",334-213-2532,ronandterri@rocketmail.com,
Mossy Oak Prop Al Land Crafter,10519 B Vaughn Road,"Pike Road, AL 36064-2700",334-277-6501,dwalker@mossyoakproperties.com,
Government Agencies,4280 Carmichael,"Montgomery, AL 36106",334-396-0256,brad.owen@montgomeryareahomes.com,
"Honea Ins. & Fin. Svcs., Inc.",9100 Eastchase Pwky Ste-A,"Montgomery, AL 36117-6602",334-272-8423,breck.honea.st1i@statefarm.com,www.breckhonea.com
Lowder New Homes Sales Inc,5772 Hampstead High St # 200,"Montgomery, AL 36116-6755",334-270-6789,jrutland@lowdernewhomes.com,lowdernewhomes.com
"CHOSEN Realty, LLC.",4269 Lomac Street,"Montgomery, AL 36106-2868",334-676-2273,jandcandrews@charter.net,
Jim Wilson & Assoc. LLC,2660 Eastchase Lane,"Montgomery, AL 36117-7025",334-260-2500,w.rush@jwamalls.com,
"Hal F Leary Home Inspect., LLC",639 Oliver Road,"Montgomery, AL 36117-2244",334-270-8899,hallearyhomeinspector@gmail.com,
Eastern Shore Real Estate & Rentals,25421 State Hwy 181,"Daphne, AL 36526",205-533-4205,itslettuce@gmail.com,
RE/MAX Properties II,4215 Carmichael Rd,"Montgomery, AL 36106-3602",334-649-4920,realtordeb@aol.com,
"Copeland, Franco, Screws &Gill",Post Office Box 347,"Montgomery, AL 36104-0347",334-834-1180,mfranco@copelandfranco.com,
BILLY COTTER APPRAISALS,,,(334) 347-1030,APPRAISALS@BILLYCOTTERAPPRAISALS.COM,
Phil Bernstein Appraisal,P.O. Box 11462,"Montgomery, AL 36111-0462",334-399-5258,pbernstein@knology.net,
"MJohnson Realty, LLC.",445 Dexter Ave. Suite 4050,"Montgomery, AL 36104-3867",334-557-7728,mjohnson@mjohnsonrealty.com,www.mjohnsonrealty.com
"Montgomery Inspection, LLC.",7218 Timbermill Dr.,"Montgomery, AL 36117-5190",334-531-9664,paul@montgomeryinspection.com,montgomeryinspection.com
EXIT River Rock Realty,P.O. Box 1431,"Millbrook, AL 36054-0031",334-290-5091,realtorhamner@gmail.com,
"Church & Church Appraisals, LLC",175 COUNTY RD 100,"Deatsville, AL 36022-2740",334-358-7779,rick_church@bellsouth.net,
"Builder New Homes, Inc.",240 Peace Church Road,"Wetumpka, AL 36093-3869",334-567-7171,buildernewhomes@elmore.rr.com,
"Hess Home Inspections, LLC.",4831 Summit Drive,"Millbrook, AL 36054-2101",334-505-2334,michaelhess1989@yahoo.com,
"Ami Mckinney Appraisals, LLC.",P.O. Box 231656,"Montgomery, AL 36123",334-220-2453,amimckinney@gmail.com,
"Charline Mathis Realty, LLC",5027 Georgia Road`,"Wetumpka, AL 36092-6024",334-318-2598,cmathis328@aol.com,Charlinemathis.com
"Rocket Homes Real Estate, LLC.",701 Griswold St.,"Detroit, MI 48226",800-980-5022,Inquires@RocketHomes.com,
Southern Classic Realty,1409 Gilmer Ave. Suite 2,"Tallassee, AL 36078-2321",334-991-4727,jbroa6@aol.com,
"New Stone Realty, LLC.",P.O. Box 780073,"Tallassee, AL 36078-0014",334-283-2900,kamiscarborough@gmail.com,
Regions Mortgage Inc,"201 Monroe Street, 1st Floor","Montgomery, AL 36104-3735",334-230-6180,allison.bird@regions.com,
Betts Realty,1731 Wentworth Drive,"Montgomery, AL 36106-2638",334-265-8258,value@bettsappraisal.net,
Alabama Real Estate LLC,7833 Vaughn Road,"Montgomery, AL 36116-6709",334-277-6116,juliedettwiler@yahoo.com,
"Pinnacle Realty, LLC",157 West Main St.,"Prattville, AL 36067-3033",334-730-0011,douglaskati@yahoo.com,www.PinnacleRealtySales.com
"ALM Properties, LLC.",6739 Taylor Cir.,"Montgomery, AL 36117-7786",334-356-8045,ALMRentalHomes@gmail.com,
"APPRAISAL SERVICES OF THE SOUTH, INC.",,,(334) 671-2600,CARL.PYLANT@APSSOUTH.COM,
Statewide Realty of Alabama,931 S. Memorial Drive,"Prattville, AL 36067-5715",334-361-4000,drruss47@aol.com,
"Lake Dog Realty, LLC.",2271 Red Hill Rd,"Eclectic, AL 36024-4433",334-306-7921,jimmybakerrealtor@gmail.com,
Legacy Homes Realty Inc,240 Peace Church Road,"Wetumpka, AL 36093-3869",334-514-7300,,
EAGLE APPRAISALS LLC,119 E SELMA ST,"DOTHAN, Al 36301-3630",(334) 794-3349,EAGLEAPPRAISALS@AOL.COM,
Waynes Pest Control,105 Waugh Industrial Park Dr.,"Pike Road, AL 36064",334-332-8050,charley.farmer@callwaynes.com,
"Kevin M. Snyder Photography, LLC.",439 Foxfire Lane,"Wetumpka, AL 36092-7516",334-669-4866,snyderimages@yahoo.com,www.kevinmichaelsnyder.com
Aronov Realty Brokerage Inc.,3500 Eastern Blvd.,"Montgomery, AL 36116-1781",334-277-2700,gary.sullivan@aronov.com,
Dean Realty,3458 Lexington Road,"Montgomery, AL 36111-1330",334-613-8111,endeansr@aol.com,
,,,334-791-8830,bobbyd@dothanrealestate.us,
"Thomas & Land Real Estate Group, LLC.",744 S. Memorial Dr.,"Prattville, AL 36067-5712",334-356-6310,mland.realtor@gmail.com,
Advanced Appraisal Service LLC,3380 Main Street,"Millbrook, AL 36054-3219",334-285-9099,jimmysutherland@bellsouth.net,
"Home Inspect, LLC",753 Summer Lane,"Prattville, AL 36066-6106",334-202-0460,homeinspectllc@outlook.com,
Ojo Home LLC.,5323 Millenia Lakes Blvd S-300,"Orlando, FL 32839-3395",407-256-8433,csibiga@ojohome.us,
ARC Realty,8191 Seaton Pl,"Montgomery, AL 36116-7205",334-213-2532,Schlemmer@arcrealtycosouth.com,www.arcrealtycosouth.com
Scott Koo Realty,8436 Crossland Loop Suite 108,"Montgomery, AL 36117",334-356-0787,scottwontak.koo@gmail.com,
The Brokerage House,6330 Woodmere Blvd.,"Montgomery, AL 36117-2500",334-277-8172,boydbvrs@gmail.com,
Steven Wingard Appraisal,105 Holly court,"Prattville, AL 36066-4903",334-538-7386,wingardappraisals@att.net,
,1841 Honeysuckle Road,"Dothan, AL 36305",334-702-3595,susanscott@kw.com,
Horton Appraisal Services,272 Skating Rink Road,"Wetumpka, AL 36092-6604",334-569-2919,thorton001@cs.com,
John Lewis Appraisal,1111 Lake Lane,"Demopolis, AL 36732-3256",334-341-9505,john.lewisinsurance@yahoo.com,
Century 21 James Grant Realty,,,(334) 793-2200,ginagrant1@hotmail.com,jgrantrealty.com
ERA JACK HUGHES REALTY,,,(334) 794-6000,danajwhitehead@yahoo.com,
Intervest Realty Group,1755 Eastern Boulevard,"Montgomery, AL 36117-1619",334-277-4873,earl@intervestreal.com,
"Your Realty Company, LLC",P. O. Box 9096,"Montgomery, AL 36108-0002",334-356-9075,yourrealty@hotmail.com,www.yourrealtycompanyllc.com
Bay Equity Home Loans,1904 Berryhill Road,"Montgomery, AL 36117-7789",334-549-2445,jjohnston@bayeq.com,www.bayequityhomeloans.com
Let's Sell Realty,117 S. Court St.,"Prattville, AL 36067-3051",334-782-3346,vincelytsell@hotmail.com,
The Goodson Group,1975 Berry Chase Pl.,"Montgomery, AL 36117-6894",334-551-0225,bogoodson@charter.net,
Williams and Williams,710 Deer Run Trail,"Shorter, AL 36075",334-312-7214,bern.will32@yahoo.com,
"Elite Realty, LLC.",3359 Hwy 14,"Millbrook, AL 36054-2424",334-517-6010,talyiap@yahoo.com,
Central Alabama Title Ctr. LLC.,640 S. McDonough St. Suite 5,"Montgomery, AL 36104-5850",334-263-2085,kristi@titlecenter.net,www.titlecenter.net
COURSON APPRAISALS,,,(334) 504-0279,coursonappraisals@gmail.com,
Cook & Associates Attorneys at Law,4142 Carmichael Rd.,"Montgomery, AL 36106-2936",334-356-7879,swan.johnson@blackbeltlawyers.com,www.blackbeltlawyers.com
Town & Country Real Estate Of Selma,890 Ravenwood Dr.,"Selma, AL 36701-6705",334-872-1122,mikebruner@selmahomes.net,
Prestige Realty,806 7th Street South,"Clanton, AL 35045-3716",205-280-7500,droberson@ymail.com,
,PO Box 310843,"Enterprise, AL 36331",334-389-4273,dpeoples@ala.net,
Exit Realty Preferred,660 McQueen Smith Rd N Suite J,"Prattville, AL 36066-7559",334-491-3948,marthadoylerealtor@aol.com,www.exitrealtyprattville.com
Realty Appraisals,1067 Arrowhead Dr.,"Prattville, AL 36067-7044",334-736-1914,dewillaimson@charter.net,
Eddins Properties Inc.,P O Box 70672,"Montgomery, AL 36106-0672",334-279-7900,liston@eddinsproperties.com,
Hodges Real Estate,1065 N. Eastern Blvd.,"Montgomery, AL 36117-2269",334-495-8888,paul.hodges@hodgeswarehouse.com,
Keller Williams Realty,7833 Vaughn Road,"Montgomery, AL 36116-6709",334-277-8920,jacampbell@kw.com,www.kellerwilliamsmontgomery.com
"Home Buyers Marketing II, Inc.",50 Parr Street,"Sumiton, AL 35148-3403",205-648-5195,kziembo@hbm2.com,
Heath Realty Plus,P.O. Box 681163,"Prattville, AL 36068",334-300-1796,a102mikeheath@gmail.com,
RE/MAX Tri-Star,1322 Old Oak Place,"Montgomery, AL 36117-6880",334-244-2400,watkins@remax-montgomery-al.net,
"HomeLight, Inc.",100 Chesterfield Business Pkwy,"Chesterfield,, MO 63005-1271",480-900-7282,mls@homelight.com,
Sullivan & Wills,6708 Taylor Circle,"Montgomery, AL 36117-3411",334-396-3333,dorothy@sullivanwills.com,
Able Pest Control,74 Breckenridge Court,"Deatsville, AL 36022-3257",334-313-1577,ablepest@att.net,
Charles Nicrosi Real Estate,PO Box 11633,"Montgomery, AL 36111-0633",334-274-1121,cnicrosi@yahoo.com,
,,,334-494-7846,travisrealestate@gmail.com,
Stinson Appraisal Services,13 Plantation Way,"Deatsville, AL 36022",334-538-8449,stinsonappraiserservices@yahoo.com,
Appraisal Associates,10 Tecumseh Drive,"Montgomery, AL 36117-4134",334-277-6199,wrand@bellsouth.net,
"CRUM, ELLIS & ASSOCIATES, P.A.",P.O. Box 1186,"Montgomery, AL 36101-1186",334-269-8462,mellis@crumellis.com,mellis@crumellis.com
Sandra Nickel Hat Team REALTOR,1044 E Fairview Ave,"Montgomery, AL 36106-2145",334-834-1500,sandra@HatTeam.com,
Bealoaks Properties,5925 Carmichael Rd.,"Montgomery, AL 36117-2518",334-558-8572,electialove@hotmail.com,
"BEX Realty, LLC",4800 N Federal Hwy Ste A100,"Boca Raton, FL 33431-5176",800-700-9806,albroker@bexrealty.com,https://www.BEXREALTY.com
HomeInfo LLC,1278 Campground Church Road,"Luverne, AL 36049-5811",334-303-4284,sherrilljeffcoat@gmail.com,homeinfollc.com
"eXp Realty, LLC. - Prattville",704 Dozier Avenue Ste B,"Prattville, AL 36067-5708",888-923-5547,mtyson@ymail.com,
Southern Star Property Mgnt,480 McQueen Smith Rd. S,"Prattville, AL 36066-5631",334-365-4679,ltv79@aol.com,
Precision Floor Care,1755 US Hwy 231 Suite A,"Wetumpka, AL 36093-1257",334-514-5757,tina@getcleangrout.com,getcleangrout.com
"Kevin M. Snyder Photography, LLC.",439 Foxfire Lane,"Wetumpka, AL 36092-7516",334-669-4866,snyderimages@yahoo.com,www.kevinmichaelsnyder.com
"Farrow Burks Appraisals, LLC.",P.O. Box 230723,"Montgomery, AL 36123-0723",334-399-4377,farrow.burks@gmail.com,
Realty Redefined,470 Pinecrest Rd.,"Prattville, AL 36067-3506",334-430-5842,ddbrobst@gmail.com,
"Lucretia Cauthen Realty, LLC",PO Box 607,"Millbrook, AL 36054-0012",334-285-2310,ccauthenwd@aol.com,
Precision Property Group,139 Medical Center Drive,"Prattville, AL 36066-7279",334-730-8017,strealestatellc@gmail.com,
Realty Central,5300 Oak Tree Road Suite H,"Millbrook, AL 36054-2219",334-285-4646,betsy@realtycentralalabama.com,
Howard W. Haynie & Assoc. Inc.,201 Eagle Ridge,"Alexander City, AL 35010-9243",334-312-0693,howard@homeonlakemartin.com,
"Covenant Realty, LLC.",1 Chase Corporate Dr Suite 400,"Hoover, AL 35244-7001",205-588-6388,Info@CovenantRealtyLLC.Net,
BERKSHIRE HATHAWAY HOME SERVICES SHOWCASE PROPERTIES,,,(334) 792-7474,susan@servicewithasmile.info,
First Realty of Greenville,100 W. Commerce St. Suite 102,"Greenville, AL 36037-2216",334-382-2688,glenn@froginc.com,
Emerson Paulk Home Inspections LLC,118 Flagstone Dr.,"Wetumpka, AL 36093-2863",334-233-8881,emersonpaul@gmail.com,www.emersonpaulk.com
"Belser Realty and Property Management, LLC.",P.O. BOX 270132,"Montgomery, AL 36124",334-669-3404,sbelser@ahiproperties.com,
Guild Mortgage Company,6719 Taylor Circle,"Montgomery, AL 36117-7706",205-908-9782,jparsons@guildmortgage.net,
Montgomery Advertiser,Post Office Box 1000,"Montgomery, AL 36101-1000",334-261-1536,kmount@gannett.com,www.montgomeryadvertiser.com
Storing Up Treasures Realty,103 N. Powell Street,"Union Springs, AL 36089-1624",334-738-3524,sharrisebaltimore@yahoo.com,
ARC Realty Lake Martin Branch,8191 Seaton Pl,"Montgomery, AL 36116-7205",334-213-2532,ronandterri@rocketmail.com,
Montg. Area Assoc. of REALTORS,4280 Carmichael Road,"Montgomery, AL 36106-2862",334-396-0256,brad.owen@montgomeryareahomes.com,montgomeryareahomes.com
Advanced Appraisal Service LLC,3380 Main Street,"Millbrook, AL 36054-3219",334-285-9099,jimmysutherland@bellsouth.net,
Realty South - Chilton REA,2003 7th Street N.,"Clanton, AL 35045-2153",205-755-5450,bamalandlady@gmail.com,
WM SCRUGGS & ASSOCIATES,,,(205) 583-4881,PSCRUGGS@WMSCRUGGS.COM,
iHomes.club,358 N Capital Pkwy,"Montgomery, AL 36107-1441",334-669-3728,sberry_001@yahoo.com,
"HomeStop Realty, LLC.","4252 Carmichael Road, Ste 224","Montgomery, AL 36106-2804",334-233-3254,isellhomes334@gmail.com,
"Trinity Real Estate Group, LLC",12575 Wares Ferry Road,"Montgomery, AL 36117-5523",334-551-1000,MaryCharlesRampy@aol.com,
ARC Realty - Elmore County,4826 US Highway 231,"Wetumpka, AL 36092-3314",334-567-6800,Don@DonBrewer.com,
"Cousins Appraisal Services of Alabama , LLC.",173 Jackson Rd,"Deatsville, AL 36022-4447",334-318-2987,traviscousins96@gmail.com,
ELITE REALTY OF THE SOUTHEAST,,,(334) 684-2644,eliterealty@centurytel.net,
Apex Listings,5748 Carmichael Pkwy Suite E,"Montgomery, AL 36117",334-303-1111,apexlistings@yahoo.com,
American Mortgage Service Company,3576 Quad Pkwy,"Montgomery, AL 36116-6750",334-603-8082,kelley.hall@americanmortgage.com,kelleyhall.americanmortgage.com
INTEGRITY ACRE REALTY,,,(334) 447-6187,REALTOR.LINDA.PAGE@GMAIL.COM,
Betts Realty,1731 Wentworth Drive,"Montgomery, AL 36106-2638",334-265-8258,value@bettsappraisal.net,
COLDWELL BANKER PRESTIGE HOMES AND REAL ESTATE,,,(334) 347-7971,cbadmin@fortruckerareahomes.com,
Prestige Realty,806 7th Street South,"Clanton, AL 35045-3716",205-280-7500,droberson@ymail.com,
C I Appraisals,2905 Westcorp Blvd. Suite 119,"Huntsville, AL 35805-6411",256-428-4545,robb@banton.com,
Scarborough & Associates,1322 Old Oak Place,"Montgomery, AL 36117-6880",334-323-1142,marriess613@aol.com,
"Michael Morgan, P.C. Attorney",4264 Carmichael Ct. N.,"Montgomery, AL 36106-2874",334-274-1117,,
,,,334-494-7846,travisrealestate@gmail.com,
Pilgreen Real Estate Company,10270 Highway 80 East,"Montgomery, AL 36117-6060",334-272-3697,epilgreen@gmail.com,
Marketplace Housing LLC,17197 N Laurel Park Dr Ste 340,"Livonia, MI 48152-7913",800-331-0646,mike.kalis@marketplacehomes.com,
Absolute Pest Control,P.O. Box 6231,"Montgomery, AL 36106-0231",334-239-7317,brittany.absolutetermite@gmail.com,ABSOLUTETERMITE.COM
Katherine Tew Realty,584 County Road 64,"Deatsville, AL 36022-3379",334-569-2080,KTewRealty@gmail.com,
RE/MAX Properties II,4215 Carmichael Rd,"Montgomery, AL 36106-3602",334-649-4920,realtordeb@aol.com,
"Century 21 Brandt Wright, Inc.",191 Fort Toulouse Road,"Wetumpka, AL 36092-3332",334-514-4949,Wrightlink1@aol.com,
AAA Inspections,119 Sunfest Dr,"Deatsville, AL 36022-5354",334-799-2758,greg@aaa-inspections.com,www.aaa-inspections.com
,,,334-350-3351,thollinger21@gmail.com,
Independent Realty,2835 Zelda Road Suite 7,"Montgomery, AL 36106-2667",334-399-1623,mrsjwaits@hotmail.com,
BRYARS APPRAISALS,,,,,
The Brokerage House,6330 Woodmere Blvd.,"Montgomery, AL 36117-2500",334-277-8172,boydbvrs@gmail.com,
Riverview Real Estate,140 Orline Street,"Wetumpka, AL 36092-2705",334-462-5263,robinsonrealtor@msn.com,
BILLY COTTER APPRAISALS,,,(334) 347-1030,APPRAISALS@BILLYCOTTERAPPRAISALS.COM,
,,,334-566-1177,lucilleblair@att.net,
Legacy Homes Realty Inc,240 Peace Church Road,"Wetumpka, AL 36093-3869",334-514-7300,,
"Foshee Realty, LLC.",21 S. Court Street,"Montgomery, AL 36104-3506",334-273-8733,john@fosheecompanies.com,
"Home Buyers Marketing II, Inc.",50 Parr Street,"Sumiton, AL 35148-3403",205-648-5195,kziembo@hbm2.com,
"Lake Dog Realty, LLC.",2271 Red Hill Rd,"Eclectic, AL 36024-4433",334-306-7921,jimmybakerrealtor@gmail.com,
Knox Pest Control,1570 North Eastern Blvd.,"Montgomery, AL 36117-2225",334-213-0410,jamessmith@knoxpest.com,
"Colonial Residential, LLC.",3107 Pinehurst,"Montgomery, AL 36111",334-270-6700,jfarrior@colonialresidential.net,
"America's Preferred Home Warranty, Inc.",2727 Spring Arbor Rd.,"Jackson, MI 49203-3605",800-648-5006,hhenry@aphw.com,aphw.com
"Residential Alabama, LLC.",4201 Nordale Dr.,"Montgomery, AL 36116-2300",334-424-3100,towannahsmith@gmail.com,
Hampstead Community Realty LLC,5251 Hampstead High St. # 205,"Montgomery, AL 36116-6758",334-270-6730,fsparkman@colonial-company.com,
"Copeland, Franco, Screws &Gill",Post Office Box 347,"Montgomery, AL 36104-0347",334-834-1180,mfranco@copelandfranco.com,
"Client Realty, LLC.",445 Dexter Avenue Suite 4050,"Montgomery, AL 36104-3775",888-258-7589,dbrinson@clientrealtyllc.com,
"Commercial Valuation Services, Inc.",2140 11th Avenue Suite 208,"Birmingham, AL 35205-2840",205-918-2000,kholcomb@cvsappraisals.com,
Fuller Realty @ Lake Martin,6628 Hwy 49 South,"Dadeville, AL 36853-6707",256-825-3435,donfrlm@gmail.com,
Campbell Properties Inc,PO Box 125,"Hope Hull, AL 36043-0125",334-288-9099,beck_camp@msn.com,
Alton J Cox,101 Savage Ave,"Evergreen, AL 36401-2734",251-578-1046,usdarhs@yahoo.com,
Select Appraisal,356 South Central Avenue,"Alexander City, AL 35010-2577",256-234-0040,selectfrank@bellsouth.net,
"NAVEST, LLC.",P.O. Box 6154,"Montgomery, AL 36117-0154",334-412-2487,bucky@natvest.com,
AERO REAL ESTATE LTD.,,,(334) 598-2269,,
"Garth Realty Group, LLC.",400 Eastern Boulevard Ste 201,"Montgomery, AL 36117-2043",334-593-0489,kenysesavage@gmail.com,
Blessed Properties,2210 E. Centex Suite 201,"KILLEEN, TX 76543",254-833-9639,patrick@blessedproperty.com,www.blessedproperty.com
Realty Central - Montgomery,7051 Fain Park Drive Suite 214,"Montgomery, AL 36107",334-285-4646,cindy@realtycentralalabama.com,
iHomes.club,358 N Capital Pkwy,"Montgomery, AL 36107-1441",334-669-3728,sberry_001@yahoo.com,
Tri-County Homes,884 Lagoon Commercial Blvd,"Montgomery, AL 36117-2205",334-221-1149,tricounty@publicationspress.com,www.tri-countyhomesonline.com
"AAA Best Home Realty, Inc.",8449 Crossland Loop Dr Ste 119,"Montgomery, AL 36117-0917",334-322-2348,mwhitlowsr@bellsouth.net,
Alabama Area Realty,830 Lucy's Trail,"Wetumpka, AL 36093-2009",334-514-4774,marsha@alabamaarearealty.com,
LAKE REALTY LLC,,,(334) 342-0162,lakerealty@yahoo.com,
Pete Prescott Realty,209 Cashion Ave,"Wetumpka, AL 36092-0018",334-850-8222,pete806@bellsouth.net,
"Quality Home Inspections, LLC.",2456 County Road 59,"Prattville, AL 36067-8039",334-313-0810,qhialabama@gmail.com,
Lisenby Real Estate,2945 Chestnut Street,"Montgomery, AL 36107-3009",334-265-1997,,
Weichert Realtors 1st Choice,8204 Old Federal Rd.,"Montgomery, AL 36117-8010",334-277-8204,jeffsilverman@live.com,
RE/MAX Properties II,4215 Carmichael Rd,"Montgomery, AL 36106-3602",334-649-4920,realtordeb@aol.com,
Ojo Home LLC.,5323 Millenia Lakes Blvd S-300,"Orlando, FL 32839-3395",407-256-8433,csibiga@ojohome.us,
JERRY DELL APPRAISALS,,,(334) 347-4555,,
Fuller Realty @ Lake Martin,6628 Hwy 49 South,"Dadeville, AL 36853-6707",256-825-3435,donfrlm@gmail.com,
DOTHAN REAL ESTATE TEAM,5170 MURPHY MILL ROAD,"Dothan, AL 36303",(334) 699-7653,KELLI@DOTHANREALESTATETEAM.COM,WWW.DOTHANREALESTATETEAM.COM
"We Shine Realty Experts, LLC.",1785 Taliaferro Trail Ste 14,"Montgomery, AL 36117-7758",334-523-1600,latarsha@weshine1.com,http://shine.matrix.alamls.net
Alabama Power Company - Corporate Real Estate,600 North 18th Street 12N-0982,"Birmingham, AL 35203-2200",205-257-4641,saustin@southernco.com,
Dean Realty,3458 Lexington Road,"Montgomery, AL 36111-1330",334-613-8111,endeansr@aol.com,
MARDEN LLC,,"DOTHAN, Al 36305-3630",(334) 714-5034,JMARDEN@GRACEBA.NET,WWW.MARDENAPPRAISALS.COM
UNITED COUNTRY FULFORD REALTY,,,(334) 588-3124,fulfordrealtyuc@gmail.com,
"CENTURY 21 Lake Area Realty, Inc.",440 N. Broadnax Street,"Dadeville, AL 36853-2102",256-825-4800,rhonda@lakearearealty.net,
JOHNSON REALTY,,,(334) 897-5300,TIMJ63@AOL.COM,
"Kelly Realty, LLC.",2477 East South Blvd.,"Montgomery, AL 36116-1023",601-594-3594,jeremykelly6@gmail.com,www.krmontgomeryhomes.com
Hodges Real Estate,1065 N. Eastern Blvd.,"Montgomery, AL 36117-2269",334-495-8888,paul.hodges@hodgeswarehouse.com,
HomeStory Real Estate Services,10657 Essex Square Boulevard,"Fort Myers, FL 33913",512-524-9335,lroberts@homestory.co,
Cadence Bank,6836 Atlanta Hwy,"Montgomery, AL 36117-4212",334-213-2636,connie.marie.arthur@cadencebank.com,
Scarborough & Associates,1322 Old Oak Place,"Montgomery, AL 36117-6880",334-323-1142,marriess613@aol.com,
"Realty Action, Inc.","4131 Carmichael Rd., Suite A1","Montgomery, AL 36106-2804",334-451-1321,georgemurry@realtyactioninc.com,
"Hal F Leary Home Inspect., LLC",639 Oliver Road,"Montgomery, AL 36117-2244",334-270-8899,hallearyhomeinspector@gmail.com,
First Call Realty,50 Kowaliga Road,"Eclectic, AL 36024-5618",334-639-0105,lyle@lylewilks.com,
ERA JACK HUGHES REALTY,,,(334) 794-6000,danajwhitehead@yahoo.com,
SCOTT FERGUSON APPRAISALS,604 MORGAN LANE,"ENTERPRISE, Al 36330-3633",(334) 477-6789,SCOTTFERGUSON@ADELPHIA.NET,
Silver Rain Realty,503 Greystone Way Unit D,"Prattville, AL 36066-7228",334-568-2011,keithpittard@realtor.com,
"Jackson and Scott, LLC.",6737 Taylor Cir,"Montgomery, AL 36117-7786",334-244-1934,mark@jscottclosing.com,
Stinson Appraisal Services,13 Plantation Way,"Deatsville, AL 36022",334-538-8449,stinsonappraiserservices@yahoo.com,
Barrs Appraisal Services,2800 Zelda Rd. Suite 100-9,"Montgomery, AL 36106-2685",334-215-4377,mbarrs@knology.net,
House & Home Real Estate,2857 Zelda Rd.,"Montgomery, AL 36106-2614",334-230-5777,carol@HouseValuesInMontgomery.com,houseandhome.house
BRYARS APPRAISALS,,,,,
"Three Rivers Realty, LLC",PO Box 232,"Hope Hull, AL 36043",334-391-7605,ajm1028@gmail.com,
Campbell Properties Inc,PO Box 125,"Hope Hull, AL 36043-0125",334-288-9099,beck_camp@msn.com,
Charles Nicrosi Real Estate,PO Box 11633,"Montgomery, AL 36111-0633",334-274-1121,cnicrosi@yahoo.com,
Omega Realty Group,110 12th Street North,"Birmingham, AL 35203",205-789-1257,trey@omegarealtygroup.com,
SHIVER APPRAISALS,,,(334) 702-0121,pwshvr@aol.com,
The Law Offices of Troy King,7065 Fain Park Drive Suite 203,"Montgomery, AL 36117-7864",334-215-4440,jw@troykinglaw.com,
Prestige Realty,806 7th Street South,"Clanton, AL 35045-3716",205-280-7500,droberson@ymail.com,
Peaches 'N Clean,P.O. Box 211057,"Montgomery, AL 36121-1057",334-277-6937,tlawrence@peachesnclean.com,peachesnclean.com
Mike Noble Appraisal. LLC,280 Harrogate Springs Rd.,"Wetumpka, AL 36093-2301",334-799-6978,mike@mikenobleappraisals.com,
Integrity Inspections of Alabama,1694 Pebble Creek Dr.,"Prattville, AL 36066",334-730-3100,integrityinspectionsofal@gmail.com,
,,,334-566-1177,lucilleblair@att.net,
Howard W. Haynie & Assoc. Inc.,201 Eagle Ridge,"Alexander City, AL 35010-9243",334-312-0693,howard@homeonlakemartin.com,
Lake Homes Realty of Central Alabama,15 Southlake Lane Suite 200,"Hoover, AL 35244-3331",866-525-3466,LHRBroker@lakehomes.com,https://www.lakehomes.com/alabama
"Church & Church Appraisals, LLC",175 COUNTY RD 100,"Deatsville, AL 36022-2740",334-358-7779,rick_church@bellsouth.net,
"S & R Home Inspections, LLC",2010 County Rd. 85,"Prattville, AL 36066-6732",334-799-4235,srinspections@gmail.com,
40/40 Real Estate Solutions LLC.,600 South Court Street,"Montgomery, AL 36104-5136",334-451-5152,smj4040@yahoo.com,
Keys Realty,600 S. Court Street Suite 310,"Montgomery, AL 36104-4106",334-201-7155,dennisbarnes@hotmail.com,
Waynes Pest Control,105 Waugh Industrial Park Dr.,"Pike Road, AL 36064",334-332-8050,charley.farmer@callwaynes.com,
"Towne Realty, Inc.",4157 Carmichael Rd.,"Montgomery, AL 36109-2888",334-207-8405,jonkeithhelms@msn.com,
"Residential Property Grp, LLC.",PO Box 210999,"Montgomery, AL 36121-0999",334-481-0116,jason@rpg-realty.com,
EXIT Realty Partners,1345 Carmichael Way,"Montgomery, AL 36106-3629",334-356-7575,bernicehenderson.exit@yahoo.com,
RE/MAX Properties II,4215 Carmichael Rd,"Montgomery, AL 36106-3602",334-649-4920,realtordeb@aol.com,
"Charline Mathis Realty, LLC",5027 Georgia Road`,"Wetumpka, AL 36092-6024",334-318-2598,cmathis328@aol.com,Charlinemathis.com
Trustmark,148 E. Main St.,"Prattville, AL 36067-3114",334-201-6044,mstringfellow@trustmark.com,https://mstringfellow-trustmark.mortgagewebcenter.com/
Omega Realty Group,110 12th Street North,"Birmingham, AL 35203",205-789-1257,trey@omegarealtygroup.com,
Stinson Appraisal Services,13 Plantation Way,"Deatsville, AL 36022",334-538-8449,stinsonappraiserservices@yahoo.com,
AAA Inspections,119 Sunfest Dr,"Deatsville, AL 36022-5354",334-799-2758,greg@aaa-inspections.com,www.aaa-inspections.com
BERKSHIRE HATHAWAY HOME SERVICES SHOWCASE PROPERTIES,,,(334) 792-7474,susan@servicewithasmile.info,
The Appraiser Group LLP,P.O. Box 208,"Troy, AL 36081",334-268-2255,kellie@TheAppraiserGroup.com,
"Belser Realty and Property Management, LLC.",P.O. BOX 270132,"Montgomery, AL 36124",334-669-3404,sbelser@ahiproperties.com,
Courtesy Realty,4131 Carmichael Road Suite 11,"Montgomery, AL 36106-2801",334-277-5600,FranciscoRossi1@yahoo.es,
FlatFee.com,5830 Sheridan Street,"Hollywood, FL 33021-3253",954-965-3990,info@flatfee.com,
